{"pageProps":{"service":{"id":3,"name":"Désinfection","landing":{"blocs":[{"tag":"h1","content":"Désinfection professionnelle en Île-de-France"},{"tag":"p","content":"Vous cherchez une entreprise de désinfection fiable et professionnelle en Île-de-France ? Nous sommes là pour vous aider !<br><br>Notre entreprise de désinfection est spécialisée dans le nettoyage et la désinfection de surfaces et d'espaces publics. Nous proposons des services de qualité pour assurer la propreté et la sécurité de votre maison, de votre entreprise ou de tout autre espace public.<br><br>Nous utilisons des produits et des méthodes de nettoyage et de désinfection qui sont sécuritaires et efficaces. Nous sommes également formés pour gérer tous les types de surfaces et d'espaces, quelle que soit leur taille ou leur complexité.<br><br>Contactez-nous dès maintenant pour en savoir plus sur nos services de désinfection en Île-de-France et demander un devis gratuit. Nous sommes impatients de vous aider à assurer la propreté et la sécurité de votre espace !"},{"tag":"h2","content":"Pourquoi choisir notre entreprise de désinfection ?"},{"tag":"ul","content":["Nous sommes une entreprise professionnelle et expérimentée dans le domaine de la désinfection.","Nous utilisons des produits et des méthodes de nettoyage et de désinfection sécuritaires et efficaces.","Nous sommes formés pour gérer tous les types de surfaces et d'espaces, quelle que soit leur taille ou leur complexité.","Nous offrons un service rapide et efficace pour assurer la propreté et la sécurité de votre espace.","Nous proposons des tarifs compétitifs et transparents."]},{"tag":"h2","content":"Comment nous contacter ?"},{"tag":"p","content":"Il vous suffit de nous appeler au 01 02 03 04 05 ou de remplir notre formulaire de contact en ligne pour nous faire part de votre demande. Nous vous répondrons dans les plus brefs délais pour échanger sur vos besoins en matière de désinfection et vous proposer une solution adaptée.<br><br>N'hésitez pas à nous contacter dès maintenant pour en savoir plus sur nos services de désinfection en Île-de-France et demander un devis gratuit. Nous sommes impatients de vous aider à assurer la propreté et la sécurité de votre espace !"}]},"description":"On trouve les insectes, on les retire et vous retrouvez votre vie normale","paragraph":["Vous cherchez une solution efficace pour assurer la désinfection de votre maison ou votre entreprise? Faites appel à notre service de désinfection professionnelle. Notre équipe d'experts utilise des produits et des équipements de qualité supérieure pour garantir un résultat optimal. Nous mettons à votre disposition tous les moyens nécessaires pour assurer la désinfection complète de votre propriété et protéger votre santé et celle de votre famille ou de vos employés. N'hésitez pas à nous contacter pour obtenir un devis gratuit et profitez d'une désinfection de qualité.","La désinfection est essentielle pour assurer la santé et la sécurité de votre maison ou votre entreprise. Nous mettons à votre disposition tous les moyens nécessaires pour assurer une désinfection complète de votre propriété et protéger votre santé et celle de votre famille ou de vos employés. Faites appel à notre service de désinfection professionnelle pour profiter d'une solution efficace et de qualité supérieure. N'hésitez pas à nous contacter pour obtenir un devis gratuit et profitez d'une désinfection de qualité.","La désinfection est une étape essentielle pour assurer la santé et la sécurité de votre maison ou votre entreprise. Faites appel à notre service de désinfection professionnelle pour profiter d'une solution rapide et efficace. Nous mettons à votre disposition tous les moyens nécessaires pour assurer une désinfection complète de votre propriété et protéger votre santé et celle de votre famille ou de vos employés. N'hésitez pas à nous contacter pour obtenir un devis gratuit et profitez d'une solution de qualité supérieure.","Vous cherchez une solution fiable et professionnelle pour assurer la désinfection de votre maison ou votre entreprise? Faites appel à notre service de désinfection. Nous mettons à votre disposition tous les moyens nécessaires pour garantir un résultat optimal et protéger votre santé et celle de votre famille ou de vos employés. N'hésitez pas à nous contacter pour obtenir un devis gratuit et profitez d'une solution efficace et de qualité supérieure.","La désinfection est une étape cruciale pour assurer la santé et la sécurité de votre maison ou votre entreprise. Faites appel à notre service de désinfection professionnelle pour profiter d'une solution de qualité supérieure. Nous utilisons des produits et des équipements de qualité supérieure pour garantir un résultat optimal. N'hésitez pas à nous contacter pour obtenir un devis gratuit et profitez d'une désinfection complète et efficace.","Vous cherchez une solution professionnelle et fiable pour assurer la désinfection de votre maison ou votre entreprise? Faites appel à notre service de désinfection. Nous mettons à votre disposition tous les moyens nécessaires pour assurer une désinfection complète de votre propriété et protéger votre santé et celle de votre famille ou de vos employés. N'hésitez pas à nous contacter pour obtenir un devis gratuit et profitez d'une solution de qualité supérieure.","La désinfection est une étape cruciale pour assurer la santé et la sécurité de votre maison ou votre entreprise. Faites appel à notre service de désinfection professionnelle pour profiter d'une solution de qualité supérieure. Nous utilisons des produits et des équipements de qualité supérieure pour garantir un résultat optimal. Nous pouvons intervenir sous 2 heures et vous proposons un devis gratuit afin que vous puissiez prendre une décision éclairée. Faites confiance à notre équipe d'experts pour une désinfection complète et efficace.","Vous cherchez une solution professionnelle et fiable pour assurer la désinfection de votre maison ou votre entreprise? Faites appel à notre service de désinfection. Nous pouvons intervenir sous 2 heures et mettons à votre disposition tous les moyens nécessaires pour assurer une désinfection complète de votre propriété et protéger votre santé et celle de votre famille ou de vos employés. N'hésitez pas à nous contacter pour obtenir un devis gratuit et profitez d'une solution de qualité supérieure."],"slug":"desinfection"},"department":{"name":"Val-de-Marne","slug":"val-de-marne","region_code":"11","code":"94","cities":[{"id":35374,"name":"Ablon-sur-Seine","slug":"ablon-sur-seine","department_code":"94","zip_code":"94480","gps_lat":48.72588714285714,"gps_lng":2.42129333333333},{"id":35375,"name":"Alfortville","slug":"alfortville","department_code":"94","zip_code":"94140","gps_lat":48.79424,"gps_lng":2.42026171428572},{"id":35376,"name":"Arcueil","slug":"arcueil","department_code":"94","zip_code":"94110","gps_lat":48.80528682539681,"gps_lng":2.3341507936508},{"id":35377,"name":"Boissy-Saint-Léger","slug":"boissy-saint-leger","department_code":"94","zip_code":"94470","gps_lat":48.75044906976746,"gps_lng":2.51939209302326},{"id":35378,"name":"Bonneuil-sur-Marne","slug":"bonneuil-sur-marne","department_code":"94","zip_code":"94380","gps_lat":48.77450277777777,"gps_lng":2.48876777777778},{"id":35379,"name":"Bry-sur-Marne","slug":"bry-sur-marne","department_code":"94","zip_code":"94360","gps_lat":48.8368512962963,"gps_lng":2.52220851851852},{"id":35380,"name":"Cachan","slug":"cachan","department_code":"94","zip_code":"94230","gps_lat":48.78977475000001,"gps_lng":2.33297375},{"id":35381,"name":"Champigny-sur-Marne","slug":"champigny-sur-marne","department_code":"94","zip_code":"94500","gps_lat":48.81618339999998,"gps_lng":2.5249656},{"id":35382,"name":"Charenton-le-Pont","slug":"charenton-le-pont","department_code":"94","zip_code":"94220","gps_lat":48.82204111111111,"gps_lng":2.40846777777778},{"id":35383,"name":"Chennevières-sur-Marne","slug":"chennevieres-sur-marne","department_code":"94","zip_code":"94430","gps_lat":48.79810647887324,"gps_lng":2.53871352112676},{"id":35384,"name":"Chevilly-Larue","slug":"chevilly-larue","department_code":"94","zip_code":"94550","gps_lat":48.76561760000001,"gps_lng":2.3459524},{"id":35385,"name":"Choisy-le-Roi","slug":"choisy-le-roi","department_code":"94","zip_code":"94600","gps_lat":48.76540465517245,"gps_lng":2.42203344827586},{"id":35386,"name":"Créteil","slug":"creteil","department_code":"94","zip_code":"94000","gps_lat":48.78098638297872,"gps_lng":2.45464180851064},{"id":35387,"name":"Fontenay-sous-Bois","slug":"fontenay-sous-bois","department_code":"94","zip_code":"94120","gps_lat":48.8509575,"gps_lng":2.47537625},{"id":35388,"name":"Fresnes","slug":"fresnes","department_code":"94","zip_code":"94260","gps_lat":48.75766596774194,"gps_lng":2.32520887096774},{"id":35389,"name":"Gentilly","slug":"gentilly","department_code":"94","zip_code":"94250","gps_lat":48.81263411764706,"gps_lng":2.34224588235294},{"id":35390,"name":"L'Haÿ-les-Roses","slug":"l-hay-les-roses","department_code":"94","zip_code":"94240","gps_lat":48.77668384615384,"gps_lng":2.33762961538462},{"id":35391,"name":"Ivry-sur-Seine","slug":"ivry-sur-seine","department_code":"94","zip_code":"94200","gps_lat":48.80877620000003,"gps_lng":2.38732},{"id":35392,"name":"Joinville-le-Pont","slug":"joinville-le-pont","department_code":"94","zip_code":"94340","gps_lat":48.81852297872342,"gps_lng":2.46838234042553},{"id":35393,"name":"Le Kremlin-Bicêtre","slug":"le-kremlin-bicetre","department_code":"94","zip_code":"94270","gps_lat":48.8079934090909,"gps_lng":2.35684454545455},{"id":35394,"name":"Limeil-Brévannes","slug":"limeil-brevannes","department_code":"94","zip_code":"94450","gps_lat":48.74641303571428,"gps_lng":2.49129767857143},{"id":35395,"name":"Maisons-Alfort","slug":"maisons-alfort","department_code":"94","zip_code":"94700","gps_lat":48.80535883720928,"gps_lng":2.44167162790698},{"id":35396,"name":"Mandres-les-Roses","slug":"mandres-les-roses","department_code":"94","zip_code":"94520","gps_lat":48.7070786153846,"gps_lng":2.54706276923077},{"id":35397,"name":"Marolles-en-Brie","slug":"marolles-en-brie","department_code":"94","zip_code":"94440","gps_lat":48.73833295454547,"gps_lng":2.55404227272727},{"id":35398,"name":"Nogent-sur-Marne","slug":"nogent-sur-marne","department_code":"94","zip_code":"94130","gps_lat":48.83654240000001,"gps_lng":2.4769032},{"id":35399,"name":"Noiseau","slug":"noiseau","department_code":"94","zip_code":"94880","gps_lat":48.77420786885246,"gps_lng":2.55670475409836},{"id":35400,"name":"Orly","slug":"orly","department_code":"94","zip_code":"94310","gps_lat":48.74261685714286,"gps_lng":2.400232},{"id":35401,"name":"Ormesson-sur-Marne","slug":"ormesson-sur-marne","department_code":"94","zip_code":"94490","gps_lat":48.78572218181818,"gps_lng":2.53887454545454},{"id":35402,"name":"Périgny","slug":"perigny","department_code":"94","zip_code":"94520","gps_lat":48.69603464285716,"gps_lng":2.55831178571429},{"id":35403,"name":"Le Perreux-sur-Marne","slug":"le-perreux-sur-marne","department_code":"94","zip_code":"94170","gps_lat":48.84388404761904,"gps_lng":2.50614023809524},{"id":35404,"name":"Le Plessis-Trévise","slug":"le-plessis-trevise","department_code":"94","zip_code":"94420","gps_lat":48.807431875,"gps_lng":2.57303333333333},{"id":35405,"name":"La Queue-en-Brie","slug":"la-queue-en-brie","department_code":"94","zip_code":"94510","gps_lat":48.7765517924528,"gps_lng":2.58620226415094},{"id":35406,"name":"Rungis","slug":"rungis","department_code":"94","zip_code":"94150","gps_lat":48.749326,"gps_lng":2.34637377777778},{"id":35407,"name":"Saint-Mandé","slug":"saint-mande","department_code":"94","zip_code":"94160","gps_lat":48.84107608695653,"gps_lng":2.41990086956522},{"id":35408,"name":"Saint-Maur-des-Fossés","slug":"saint-maur-des-fosses","department_code":"94","zip_code":"94100","gps_lat":48.7980422,"gps_lng":2.4800862},{"id":35410,"name":"Saint-Maurice","slug":"saint-maurice","department_code":"94","zip_code":"94410","gps_lat":48.81825951219511,"gps_lng":2.44028048780488},{"id":35411,"name":"Santeny","slug":"santeny","department_code":"94","zip_code":"94440","gps_lat":48.73056060000001,"gps_lng":2.5769883},{"id":35412,"name":"Sucy-en-Brie","slug":"sucy-en-brie","department_code":"94","zip_code":"94370","gps_lat":48.76892872340424,"gps_lng":2.53322074468085},{"id":35413,"name":"Thiais","slug":"thiais","department_code":"94","zip_code":"94320","gps_lat":48.76041069767442,"gps_lng":2.38710906976744},{"id":35414,"name":"Valenton","slug":"valenton","department_code":"94","zip_code":"94460","gps_lat":48.75098696202532,"gps_lng":2.4604817721519},{"id":35415,"name":"Villecresnes","slug":"villecresnes","department_code":"94","zip_code":"94440","gps_lat":48.71877140624999,"gps_lng":2.5349334375},{"id":35416,"name":"Villejuif","slug":"villejuif","department_code":"94","zip_code":"94800","gps_lat":48.79371447761196,"gps_lng":2.35819104477612},{"id":35417,"name":"Villeneuve-le-Roi","slug":"villeneuve-le-roi","department_code":"94","zip_code":"94290","gps_lat":48.73188198019804,"gps_lng":2.41047089108911},{"id":35418,"name":"Villeneuve-Saint-Georges","slug":"villeneuve-saint-georges","department_code":"94","zip_code":"94190","gps_lat":48.73486612612612,"gps_lng":2.45187837837838},{"id":35419,"name":"Villiers-sur-Marne","slug":"villiers-sur-marne","department_code":"94","zip_code":"94350","gps_lat":48.82505538461535,"gps_lng":2.5438283076923103},{"id":35420,"name":"Vincennes","slug":"vincennes","department_code":"94","zip_code":"94300","gps_lat":48.84797953488372,"gps_lng":2.44115906976744},{"id":35421,"name":"Vitry-sur-Seine","slug":"vitry-sur-seine","department_code":"94","zip_code":"94400","gps_lat":48.79049743589744,"gps_lng":2.39055551282051}]},"city":{"id":35376,"name":"Arcueil","slug":"arcueil","department_code":"94","zip_code":"94110","gps_lat":48.80528682539681,"gps_lng":2.3341507936508},"SITE_NAME":"DSTR 3D"},"__N_SSG":true}