{"pageProps":{"department":{"name":"Hauts-de-Seine","slug":"hauts-de-seine","region_code":"11","code":"92","cities":[{"id":35296,"name":"Antony","slug":"antony","department_code":"92","zip_code":"92160","gps_lat":48.74945257425741,"gps_lng":2.29933831683168},{"id":35297,"name":"Asnières-sur-Seine","slug":"asnieres-sur-seine","department_code":"92","zip_code":"92600","gps_lat":48.91662739999999,"gps_lng":2.2867118},{"id":35298,"name":"Bagneux","slug":"bagneux","department_code":"92","zip_code":"92220","gps_lat":48.80046534883721,"gps_lng":2.31185627906977},{"id":35299,"name":"Bois-Colombes","slug":"bois-colombes","department_code":"92","zip_code":"92270","gps_lat":48.91542727272726,"gps_lng":2.26556060606061},{"id":35300,"name":"Boulogne-Billancourt","slug":"boulogne-billancourt","department_code":"92","zip_code":"92100","gps_lat":48.83447676470589,"gps_lng":2.23801470588235},{"id":35301,"name":"Bourg-la-Reine","slug":"bourg-la-reine","department_code":"92","zip_code":"92340","gps_lat":48.78099642857142,"gps_lng":2.31795607142857},{"id":35302,"name":"Châtenay-Malabry","slug":"chatenay-malabry","department_code":"92","zip_code":"92290","gps_lat":48.77128801886792,"gps_lng":2.25978990566038},{"id":35303,"name":"Châtillon","slug":"chatillon","department_code":"92","zip_code":"92320","gps_lat":48.80258666666666,"gps_lng":2.28596705882353},{"id":35304,"name":"Chaville","slug":"chaville","department_code":"92","zip_code":"92370","gps_lat":48.80975673076924,"gps_lng":2.19121211538462},{"id":35305,"name":"Clamart","slug":"clamart","department_code":"92","zip_code":"92140","gps_lat":48.79878055045872,"gps_lng":2.25256733944954},{"id":35306,"name":"Clichy","slug":"clichy","department_code":"92","zip_code":"92110","gps_lat":48.90526777777777,"gps_lng":2.30929888888889},{"id":35307,"name":"Colombes","slug":"colombes","department_code":"92","zip_code":"92700","gps_lat":48.92213134615386,"gps_lng":2.25150673076923},{"id":35308,"name":"Courbevoie","slug":"courbevoie","department_code":"92","zip_code":"92400","gps_lat":48.90065025,"gps_lng":2.258022},{"id":35309,"name":"Fontenay-aux-Roses","slug":"fontenay-aux-roses","department_code":"92","zip_code":"92260","gps_lat":48.789906734693886,"gps_lng":2.28269224489796},{"id":35310,"name":"Garches","slug":"garches","department_code":"92","zip_code":"92380","gps_lat":48.8465130232558,"gps_lng":2.18706860465116},{"id":35311,"name":"La Garenne-Colombes","slug":"la-garenne-colombes","department_code":"92","zip_code":"92250","gps_lat":48.907135,"gps_lng":2.247778},{"id":35312,"name":"Gennevilliers","slug":"gennevilliers","department_code":"92","zip_code":"92230","gps_lat":48.93253964285715,"gps_lng":2.29066803571429},{"id":35313,"name":"Issy-les-Moulineaux","slug":"issy-les-moulineaux","department_code":"92","zip_code":"92130","gps_lat":48.82211984615387,"gps_lng":2.26478861538462},{"id":35314,"name":"Levallois-Perret","slug":"levallois-perret","department_code":"92","zip_code":"92300","gps_lat":48.895157,"gps_lng":2.286202},{"id":35315,"name":"Malakoff","slug":"malakoff","department_code":"92","zip_code":"92240","gps_lat":48.813464,"gps_lng":2.2903356},{"id":35316,"name":"Marnes-la-Coquette","slug":"marnes-la-coquette","department_code":"92","zip_code":"92430","gps_lat":48.82902472222221,"gps_lng":2.16663694444445},{"id":35317,"name":"Meudon","slug":"meudon","department_code":"92","zip_code":"92190","gps_lat":48.8131145,"gps_lng":2.2343975},{"id":35319,"name":"Montrouge","slug":"montrouge","department_code":"92","zip_code":"92120","gps_lat":48.81344454545455,"gps_lng":2.3180109090909102},{"id":35320,"name":"Nanterre","slug":"nanterre","department_code":"92","zip_code":"92000","gps_lat":48.89624622641509,"gps_lng":2.21393811320755},{"id":35321,"name":"Neuilly-sur-Seine","slug":"neuilly-sur-seine","department_code":"92","zip_code":"92200","gps_lat":48.884595,"gps_lng":2.2616955},{"id":35322,"name":"Le Plessis-Robinson","slug":"le-plessis-robinson","department_code":"92","zip_code":"92350","gps_lat":48.77915202380952,"gps_lng":2.26142154761905},{"id":35323,"name":"Puteaux","slug":"puteaux","department_code":"92","zip_code":"92800","gps_lat":48.88458666666666,"gps_lng":2.23583151515152},{"id":35324,"name":"Rueil-Malmaison","slug":"rueil-malmaison","department_code":"92","zip_code":"92500","gps_lat":48.86570373493975,"gps_lng":2.17676903614458},{"id":35325,"name":"Saint-Cloud","slug":"saint-cloud","department_code":"92","zip_code":"92210","gps_lat":48.84132151515151,"gps_lng":2.20578333333333},{"id":35326,"name":"Sceaux","slug":"sceaux","department_code":"92","zip_code":"92330","gps_lat":48.77759333333331,"gps_lng":2.29410142857143},{"id":35327,"name":"Sèvres","slug":"sevres","department_code":"92","zip_code":"92310","gps_lat":48.8216746511628,"gps_lng":2.20987151162791},{"id":35328,"name":"Suresnes","slug":"suresnes","department_code":"92","zip_code":"92150","gps_lat":48.87027813953488,"gps_lng":2.21604604651163},{"id":35329,"name":"Vanves","slug":"vanves","department_code":"92","zip_code":"92170","gps_lat":48.82131096774194,"gps_lng":2.2828435483871},{"id":35330,"name":"Vaucresson","slug":"vaucresson","department_code":"92","zip_code":"92420","gps_lat":48.84119928571429,"gps_lng":2.160885},{"id":35331,"name":"Ville-d'Avray","slug":"ville-d-avray","department_code":"92","zip_code":"92410","gps_lat":48.82247345454546,"gps_lng":2.17725418181818},{"id":35332,"name":"Villeneuve-la-Garenne","slug":"villeneuve-la-garenne","department_code":"92","zip_code":"92390","gps_lat":48.93648041666666,"gps_lng":2.32374125}]},"service":{"id":4,"name":"Démoussage","description":"On trouve les insectes, on les retire et vous retrouvez votre vie normale","slug":"demoussage"}},"__N_SSG":true}