{"pageProps":{"service":{"id":3,"name":"Désinfection","landing":{"blocs":[{"tag":"h1","content":"Désinfection professionnelle en Île-de-France"},{"tag":"p","content":"Vous cherchez une entreprise de désinfection fiable et professionnelle en Île-de-France ? Nous sommes là pour vous aider !<br><br>Notre entreprise de désinfection est spécialisée dans le nettoyage et la désinfection de surfaces et d'espaces publics. Nous proposons des services de qualité pour assurer la propreté et la sécurité de votre maison, de votre entreprise ou de tout autre espace public.<br><br>Nous utilisons des produits et des méthodes de nettoyage et de désinfection qui sont sécuritaires et efficaces. Nous sommes également formés pour gérer tous les types de surfaces et d'espaces, quelle que soit leur taille ou leur complexité.<br><br>Contactez-nous dès maintenant pour en savoir plus sur nos services de désinfection en Île-de-France et demander un devis gratuit. Nous sommes impatients de vous aider à assurer la propreté et la sécurité de votre espace !"},{"tag":"h2","content":"Pourquoi choisir notre entreprise de désinfection ?"},{"tag":"ul","content":["Nous sommes une entreprise professionnelle et expérimentée dans le domaine de la désinfection.","Nous utilisons des produits et des méthodes de nettoyage et de désinfection sécuritaires et efficaces.","Nous sommes formés pour gérer tous les types de surfaces et d'espaces, quelle que soit leur taille ou leur complexité.","Nous offrons un service rapide et efficace pour assurer la propreté et la sécurité de votre espace.","Nous proposons des tarifs compétitifs et transparents."]},{"tag":"h2","content":"Comment nous contacter ?"},{"tag":"p","content":"Il vous suffit de nous appeler au 01 02 03 04 05 ou de remplir notre formulaire de contact en ligne pour nous faire part de votre demande. Nous vous répondrons dans les plus brefs délais pour échanger sur vos besoins en matière de désinfection et vous proposer une solution adaptée.<br><br>N'hésitez pas à nous contacter dès maintenant pour en savoir plus sur nos services de désinfection en Île-de-France et demander un devis gratuit. Nous sommes impatients de vous aider à assurer la propreté et la sécurité de votre espace !"}]},"description":"On trouve les insectes, on les retire et vous retrouvez votre vie normale","paragraph":["Vous cherchez une solution efficace pour assurer la désinfection de votre maison ou votre entreprise? Faites appel à notre service de désinfection professionnelle. Notre équipe d'experts utilise des produits et des équipements de qualité supérieure pour garantir un résultat optimal. Nous mettons à votre disposition tous les moyens nécessaires pour assurer la désinfection complète de votre propriété et protéger votre santé et celle de votre famille ou de vos employés. N'hésitez pas à nous contacter pour obtenir un devis gratuit et profitez d'une désinfection de qualité.","La désinfection est essentielle pour assurer la santé et la sécurité de votre maison ou votre entreprise. Nous mettons à votre disposition tous les moyens nécessaires pour assurer une désinfection complète de votre propriété et protéger votre santé et celle de votre famille ou de vos employés. Faites appel à notre service de désinfection professionnelle pour profiter d'une solution efficace et de qualité supérieure. N'hésitez pas à nous contacter pour obtenir un devis gratuit et profitez d'une désinfection de qualité.","La désinfection est une étape essentielle pour assurer la santé et la sécurité de votre maison ou votre entreprise. Faites appel à notre service de désinfection professionnelle pour profiter d'une solution rapide et efficace. Nous mettons à votre disposition tous les moyens nécessaires pour assurer une désinfection complète de votre propriété et protéger votre santé et celle de votre famille ou de vos employés. N'hésitez pas à nous contacter pour obtenir un devis gratuit et profitez d'une solution de qualité supérieure.","Vous cherchez une solution fiable et professionnelle pour assurer la désinfection de votre maison ou votre entreprise? Faites appel à notre service de désinfection. Nous mettons à votre disposition tous les moyens nécessaires pour garantir un résultat optimal et protéger votre santé et celle de votre famille ou de vos employés. N'hésitez pas à nous contacter pour obtenir un devis gratuit et profitez d'une solution efficace et de qualité supérieure.","La désinfection est une étape cruciale pour assurer la santé et la sécurité de votre maison ou votre entreprise. Faites appel à notre service de désinfection professionnelle pour profiter d'une solution de qualité supérieure. Nous utilisons des produits et des équipements de qualité supérieure pour garantir un résultat optimal. N'hésitez pas à nous contacter pour obtenir un devis gratuit et profitez d'une désinfection complète et efficace.","Vous cherchez une solution professionnelle et fiable pour assurer la désinfection de votre maison ou votre entreprise? Faites appel à notre service de désinfection. Nous mettons à votre disposition tous les moyens nécessaires pour assurer une désinfection complète de votre propriété et protéger votre santé et celle de votre famille ou de vos employés. N'hésitez pas à nous contacter pour obtenir un devis gratuit et profitez d'une solution de qualité supérieure.","La désinfection est une étape cruciale pour assurer la santé et la sécurité de votre maison ou votre entreprise. Faites appel à notre service de désinfection professionnelle pour profiter d'une solution de qualité supérieure. Nous utilisons des produits et des équipements de qualité supérieure pour garantir un résultat optimal. Nous pouvons intervenir sous 2 heures et vous proposons un devis gratuit afin que vous puissiez prendre une décision éclairée. Faites confiance à notre équipe d'experts pour une désinfection complète et efficace.","Vous cherchez une solution professionnelle et fiable pour assurer la désinfection de votre maison ou votre entreprise? Faites appel à notre service de désinfection. Nous pouvons intervenir sous 2 heures et mettons à votre disposition tous les moyens nécessaires pour assurer une désinfection complète de votre propriété et protéger votre santé et celle de votre famille ou de vos employés. N'hésitez pas à nous contacter pour obtenir un devis gratuit et profitez d'une solution de qualité supérieure."],"slug":"desinfection"},"department":{"name":"Seine-et-Marne","slug":"seine-et-marne","region_code":"11","code":"77","cities":[{"id":30639,"name":"Achères-la-Forêt","slug":"acheres-la-foret","department_code":"77","zip_code":"77760","gps_lat":48.35097184210527,"gps_lng":2.56216421052632},{"id":30640,"name":"Amillis","slug":"amillis","department_code":"77","zip_code":"77120","gps_lat":48.73402720930233,"gps_lng":3.14414775193798},{"id":30641,"name":"Amponville","slug":"amponville","department_code":"77","zip_code":"77760","gps_lat":48.29470631578948,"gps_lng":2.52667210526316},{"id":30642,"name":"Andrezel","slug":"andrezel","department_code":"77","zip_code":"77390","gps_lat":48.61203014925373,"gps_lng":2.8002411940298497},{"id":30643,"name":"Annet-sur-Marne","slug":"annet-sur-marne","department_code":"77","zip_code":"77410","gps_lat":48.91934039603961,"gps_lng":2.70429782178218},{"id":30644,"name":"Arbonne-la-Forêt","slug":"arbonne-la-foret","department_code":"77","zip_code":"77630","gps_lat":48.41652615384616,"gps_lng":2.55906102564103},{"id":30645,"name":"Argentières","slug":"argentieres","department_code":"77","zip_code":"77390","gps_lat":48.65265836363637,"gps_lng":2.8694958181818198},{"id":30646,"name":"Armentières-en-Brie","slug":"armentieres-en-brie","department_code":"77","zip_code":"77440","gps_lat":48.97688391891892,"gps_lng":3.00896783783784},{"id":30647,"name":"Arville","slug":"arville","department_code":"77","zip_code":"77890","gps_lat":48.18294340000002,"gps_lng":2.5558974},{"id":30648,"name":"Aubepierre-Ozouer-le-Repos","slug":"aubepierre-ozouer-le-repos","department_code":"77","zip_code":"77720","gps_lat":48.61551587939697,"gps_lng":2.904171959799},{"id":30649,"name":"Aufferville","slug":"aufferville","department_code":"77","zip_code":"77570","gps_lat":48.20259325581397,"gps_lng":2.60652069767442},{"id":30650,"name":"Augers-en-Brie","slug":"augers-en-brie","department_code":"77","zip_code":"77560","gps_lat":48.6702092631579,"gps_lng":3.34430010526316},{"id":30651,"name":"Aulnoy","slug":"aulnoy","department_code":"77","zip_code":"77120","gps_lat":48.85165771929822,"gps_lng":3.09306710526316},{"id":30652,"name":"Avon","slug":"avon","department_code":"77","zip_code":"77210","gps_lat":48.41224213114753,"gps_lng":2.7317721311475403},{"id":30653,"name":"Baby","slug":"baby","department_code":"77","zip_code":"77480","gps_lat":48.39202868421053,"gps_lng":3.34216263157895},{"id":30654,"name":"Bagneaux-sur-Loing","slug":"bagneaux-sur-loing","department_code":"77","zip_code":"77167","gps_lat":48.21815702702703,"gps_lng":2.71048635135135},{"id":30655,"name":"Bailly-Romainvilliers","slug":"bailly-romainvilliers","department_code":"77","zip_code":"77700","gps_lat":48.84410456790123,"gps_lng":2.81910222222222},{"id":30656,"name":"Balloy","slug":"balloy","department_code":"77","zip_code":"77118","gps_lat":48.40320999999999,"gps_lng":3.1485303030303},{"id":30657,"name":"Bannost-Villegagnon","slug":"bannost-villegagnon","department_code":"77","zip_code":"77970","gps_lat":48.67643639097743,"gps_lng":3.19061992481203},{"id":30658,"name":"Barbey","slug":"barbey","department_code":"77","zip_code":"77130","gps_lat":48.36498735849057,"gps_lng":3.04890377358491},{"id":30659,"name":"Barbizon","slug":"barbizon","department_code":"77","zip_code":"77630","gps_lat":48.44965737704918,"gps_lng":2.59961049180328},{"id":30660,"name":"Barcy","slug":"barcy","department_code":"77","zip_code":"77910","gps_lat":49.01845220779221,"gps_lng":2.87660636363636},{"id":30661,"name":"Bassevelle","slug":"bassevelle","department_code":"77","zip_code":"77750","gps_lat":48.91632842105262,"gps_lng":3.26980094736842},{"id":30662,"name":"Bazoches-lès-Bray","slug":"bazoches-les-bray","department_code":"77","zip_code":"77118","gps_lat":48.40402566929136,"gps_lng":3.18857677165354},{"id":30663,"name":"Beauchery-Saint-Martin","slug":"beauchery-saint-martin","department_code":"77","zip_code":"77560","gps_lat":48.60149323232326,"gps_lng":3.4257201010101},{"id":30664,"name":"Beaumont-du-Gâtinais","slug":"beaumont-du-gatinais","department_code":"77","zip_code":"77890","gps_lat":48.13757531645571,"gps_lng":2.48104658227848},{"id":30665,"name":"Beautheil","slug":"beautheil","department_code":"77","zip_code":"77120","gps_lat":48.76272852272728,"gps_lng":3.0870675},{"id":30666,"name":"Beauvoir","slug":"beauvoir","department_code":"77","zip_code":"77390","gps_lat":48.64435458333332,"gps_lng":2.8621974999999997},{"id":30667,"name":"Bellot","slug":"bellot","department_code":"77","zip_code":"77510","gps_lat":48.84587753731343,"gps_lng":3.32709373134328},{"id":30668,"name":"Bernay-Vilbert","slug":"bernay-vilbert","department_code":"77","zip_code":"77540","gps_lat":48.67484158333332,"gps_lng":2.93365683333333},{"id":30669,"name":"Beton-Bazoches","slug":"beton-bazoches","department_code":"77","zip_code":"77320","gps_lat":48.70170112068963,"gps_lng":3.243665},{"id":30670,"name":"Bezalles","slug":"bezalles","department_code":"77","zip_code":"77970","gps_lat":48.66885732142856,"gps_lng":3.23904696428571},{"id":30671,"name":"Blandy","slug":"blandy","department_code":"77","zip_code":"77115","gps_lat":48.55740842975207,"gps_lng":2.78623826446281},{"id":30672,"name":"Blennes","slug":"blennes","department_code":"77","zip_code":"77940","gps_lat":48.2393737777778,"gps_lng":3.00829644444444},{"id":30673,"name":"Boisdon","slug":"boisdon","department_code":"77","zip_code":"77970","gps_lat":48.6769677631579,"gps_lng":3.22673184210526},{"id":30674,"name":"Bois-le-Roi","slug":"bois-le-roi","department_code":"77","zip_code":"77590","gps_lat":48.47917703703703,"gps_lng":2.70036555555556},{"id":30675,"name":"Boissettes","slug":"boissettes","department_code":"77","zip_code":"77350","gps_lat":48.52382437499999,"gps_lng":2.6123678125},{"id":30676,"name":"Boissise-la-Bertrand","slug":"boissise-la-bertrand","department_code":"77","zip_code":"77350","gps_lat":48.53131529411765,"gps_lng":2.5961758823529397},{"id":30677,"name":"Boissise-le-Roi","slug":"boissise-le-roi","department_code":"77","zip_code":"77310","gps_lat":48.51694936708863,"gps_lng":2.56637455696203},{"id":30678,"name":"Boissy-aux-Cailles","slug":"boissy-aux-cailles","department_code":"77","zip_code":"77760","gps_lat":48.30947375000001,"gps_lng":2.49704138888889},{"id":30679,"name":"Boissy-le-Châtel","slug":"boissy-le-chatel","department_code":"77","zip_code":"77169","gps_lat":48.8254311728395,"gps_lng":3.13413401234568},{"id":30680,"name":"Boitron","slug":"boitron","department_code":"77","zip_code":"77750","gps_lat":48.89541944444444,"gps_lng":3.25830388888889},{"id":30681,"name":"Bombon","slug":"bombon","department_code":"77","zip_code":"77720","gps_lat":48.56848774999998,"gps_lng":2.866532},{"id":30682,"name":"Bougligny","slug":"bougligny","department_code":"77","zip_code":"77570","gps_lat":48.20099437499999,"gps_lng":2.668588125},{"id":30683,"name":"Boulancourt","slug":"boulancourt","department_code":"77","zip_code":"77760","gps_lat":48.25882916666667,"gps_lng":2.44545066666667},{"id":30684,"name":"Bouleurs","slug":"bouleurs","department_code":"77","zip_code":"77580","gps_lat":48.87992411111111,"gps_lng":2.9057742222222203},{"id":30685,"name":"Bourron-Marlotte","slug":"bourron-marlotte","department_code":"77","zip_code":"77780","gps_lat":48.33815098901099,"gps_lng":2.6996876923076902},{"id":30686,"name":"Boutigny","slug":"boutigny","department_code":"77","zip_code":"77470","gps_lat":48.91236464912281,"gps_lng":2.93011385964912},{"id":30687,"name":"Bransles","slug":"bransles","department_code":"77","zip_code":"77620","gps_lat":48.15163834862386,"gps_lng":2.82782834862385},{"id":30688,"name":"Bray-sur-Seine","slug":"bray-sur-seine","department_code":"77","zip_code":"77480","gps_lat":48.41775166666665,"gps_lng":3.24446071428571},{"id":30689,"name":"Bréau","slug":"breau","department_code":"77","zip_code":"77720","gps_lat":48.55816931034483,"gps_lng":2.88288137931034},{"id":30690,"name":"Brie-Comte-Robert","slug":"brie-comte-robert","department_code":"77","zip_code":"77170","gps_lat":48.68841195266272,"gps_lng":2.61687952662722},{"id":30691,"name":"La Brosse-Montceaux","slug":"la-brosse-montceaux","department_code":"77","zip_code":"77940","gps_lat":48.33955200000001,"gps_lng":3.02434358333333},{"id":30692,"name":"Brou-sur-Chantereine","slug":"brou-sur-chantereine","department_code":"77","zip_code":"77177","gps_lat":48.8882442857143,"gps_lng":2.63539785714286},{"id":30693,"name":"Burcy","slug":"burcy","department_code":"77","zip_code":"77760","gps_lat":48.23127475000002,"gps_lng":2.5261744999999998},{"id":30694,"name":"Bussières","slug":"bussieres","department_code":"77","zip_code":"77750","gps_lat":48.92695581818181,"gps_lng":3.23730163636364},{"id":30695,"name":"Bussy-Saint-Georges","slug":"bussy-saint-georges","department_code":"77","zip_code":"77600","gps_lat":48.83112895161288,"gps_lng":2.71641056451613},{"id":30696,"name":"Bussy-Saint-Martin","slug":"bussy-saint-martin","department_code":"77","zip_code":"77600","gps_lat":48.844874126984124,"gps_lng":2.6790139682539698},{"id":30697,"name":"Buthiers","slug":"buthiers","department_code":"77","zip_code":"77760","gps_lat":48.2863986734694,"gps_lng":2.44582897959184},{"id":30698,"name":"Cannes-Écluse","slug":"cannes-ecluse","department_code":"77","zip_code":"77130","gps_lat":48.36108173913044,"gps_lng":2.99403043478261},{"id":30699,"name":"Carnetin","slug":"carnetin","department_code":"77","zip_code":"77400","gps_lat":48.90404921568628,"gps_lng":2.70060529411765},{"id":30700,"name":"La Celle-sur-Morin","slug":"la-celle-sur-morin","department_code":"77","zip_code":"77515","gps_lat":48.80477963414635,"gps_lng":2.97025304878049},{"id":30701,"name":"Cély","slug":"cely","department_code":"77","zip_code":"77930","gps_lat":48.45809773195877,"gps_lng":2.5247517525773198},{"id":30702,"name":"Cerneux","slug":"cerneux","department_code":"77","zip_code":"77320","gps_lat":48.70673961538459,"gps_lng":3.34506451923077},{"id":30703,"name":"Cesson","slug":"cesson","department_code":"77","zip_code":"77240","gps_lat":48.56500516666667,"gps_lng":2.58960816666667},{"id":30704,"name":"Cessoy-en-Montois","slug":"cessoy-en-montois","department_code":"77","zip_code":"77520","gps_lat":48.50638457142857,"gps_lng":3.144135},{"id":30705,"name":"Chailly-en-Bière","slug":"chailly-en-biere","department_code":"77","zip_code":"77930","gps_lat":48.4711557017544,"gps_lng":2.61785456140351},{"id":30706,"name":"Chailly-en-Brie","slug":"chailly-en-brie","department_code":"77","zip_code":"77120","gps_lat":48.79321561538458,"gps_lng":3.136092},{"id":30707,"name":"Chaintreaux","slug":"chaintreaux","department_code":"77","zip_code":"77460","gps_lat":48.18958951724139,"gps_lng":2.81104648275862},{"id":30708,"name":"Chalautre-la-Grande","slug":"chalautre-la-grande","department_code":"77","zip_code":"77171","gps_lat":48.54831210526316,"gps_lng":3.44938589473684},{"id":30709,"name":"Chalautre-la-Petite","slug":"chalautre-la-petite","department_code":"77","zip_code":"77160","gps_lat":48.525907912087916,"gps_lng":3.30611978021978},{"id":30710,"name":"Chalifert","slug":"chalifert","department_code":"77","zip_code":"77144","gps_lat":48.89648092592592,"gps_lng":2.77260592592593},{"id":30711,"name":"Chalmaison","slug":"chalmaison","department_code":"77","zip_code":"77650","gps_lat":48.48784876404497,"gps_lng":3.25465853932584},{"id":30712,"name":"Chambry","slug":"chambry","department_code":"77","zip_code":"77910","gps_lat":48.99797743902437,"gps_lng":2.88632243902439},{"id":30713,"name":"Chamigny","slug":"chamigny","department_code":"77","zip_code":"77260","gps_lat":48.98617834437085,"gps_lng":3.13713827814569},{"id":30714,"name":"Champagne-sur-Seine","slug":"champagne-sur-seine","department_code":"77","zip_code":"77430","gps_lat":48.4072825,"gps_lng":2.80194357142857},{"id":30715,"name":"Champcenest","slug":"champcenest","department_code":"77","zip_code":"77560","gps_lat":48.66737488372094,"gps_lng":3.28208848837209},{"id":30716,"name":"Champdeuil","slug":"champdeuil","department_code":"77","zip_code":"77390","gps_lat":48.62236533333333,"gps_lng":2.732376},{"id":30717,"name":"Champeaux","slug":"champeaux","department_code":"77","zip_code":"77720","gps_lat":48.58911399999999,"gps_lng":2.8177804},{"id":30718,"name":"Champs-sur-Marne","slug":"champs-sur-marne","department_code":"77","zip_code":"77420","gps_lat":48.84876163636365,"gps_lng":2.59262545454545},{"id":30719,"name":"Changis-sur-Marne","slug":"changis-sur-marne","department_code":"77","zip_code":"77660","gps_lat":48.96765982142858,"gps_lng":3.02696071428571},{"id":30720,"name":"Chanteloup-en-Brie","slug":"chanteloup-en-brie","department_code":"77","zip_code":"77600","gps_lat":48.85570875000001,"gps_lng":2.73911339285714},{"id":30721,"name":"La Chapelle-Gauthier","slug":"la-chapelle-gauthier","department_code":"77","zip_code":"77720","gps_lat":48.53337212290506,"gps_lng":2.85918553072626},{"id":30722,"name":"La Chapelle-Iger","slug":"la-chapelle-iger","department_code":"77","zip_code":"77540","gps_lat":48.65084886956521,"gps_lng":2.98584634782609},{"id":30723,"name":"La Chapelle-la-Reine","slug":"la-chapelle-la-reine","department_code":"77","zip_code":"77760","gps_lat":48.31651569892472,"gps_lng":2.56940548387097},{"id":30724,"name":"La Chapelle-Rablais","slug":"la-chapelle-rablais","department_code":"77","zip_code":"77370","gps_lat":48.50701172413793,"gps_lng":2.9571841379310397},{"id":30725,"name":"La Chapelle-Saint-Sulpice","slug":"la-chapelle-saint-sulpice","department_code":"77","zip_code":"77160","gps_lat":48.55826919354838,"gps_lng":3.17858338709677},{"id":30726,"name":"Les Chapelles-Bourbon","slug":"les-chapelles-bourbon","department_code":"77","zip_code":"77610","gps_lat":48.74484637931034,"gps_lng":2.8378663793103502},{"id":30727,"name":"La Chapelle-Moutils","slug":"la-chapelle-moutils","department_code":"77","zip_code":"77320","gps_lat":48.77232354037267,"gps_lng":3.37719658385093},{"id":30728,"name":"Charmentray","slug":"charmentray","department_code":"77","zip_code":"77410","gps_lat":48.95284747126436,"gps_lng":2.78324482758621},{"id":30729,"name":"Charny","slug":"charny","department_code":"77","zip_code":"77410","gps_lat":48.96811696202533,"gps_lng":2.7586549367088598},{"id":30730,"name":"Chartrettes","slug":"chartrettes","department_code":"77","zip_code":"77590","gps_lat":48.49900300000001,"gps_lng":2.71309985714286},{"id":30731,"name":"Chartronges","slug":"chartronges","department_code":"77","zip_code":"77320","gps_lat":48.75040911764705,"gps_lng":3.26275617647059},{"id":30732,"name":"Châteaubleau","slug":"chateaubleau","department_code":"77","zip_code":"77370","gps_lat":48.58386317460318,"gps_lng":3.10632079365079},{"id":30733,"name":"Château-Landon","slug":"chateau-landon","department_code":"77","zip_code":"77570","gps_lat":48.14737194690264,"gps_lng":2.69710442477876},{"id":30734,"name":"Le Châtelet-en-Brie","slug":"le-chatelet-en-brie","department_code":"77","zip_code":"77820","gps_lat":48.50085227941177,"gps_lng":2.80371132352941},{"id":30735,"name":"Châtenay-sur-Seine","slug":"chatenay-sur-seine","department_code":"77","zip_code":"77126","gps_lat":48.41798128712866,"gps_lng":3.09829792079208},{"id":30736,"name":"Châtenoy","slug":"chatenoy","department_code":"77","zip_code":"77167","gps_lat":48.23319750000001,"gps_lng":2.63219660714286},{"id":30737,"name":"Châtillon-la-Borde","slug":"chatillon-la-borde","department_code":"77","zip_code":"77820","gps_lat":48.53754499999999,"gps_lng":2.8179265625},{"id":30738,"name":"Châtres","slug":"chatres","department_code":"77","zip_code":"77610","gps_lat":48.7088644210526,"gps_lng":2.81372305263158},{"id":30739,"name":"Chauffry","slug":"chauffry","department_code":"77","zip_code":"77169","gps_lat":48.82238448979594,"gps_lng":3.17958193877551},{"id":30740,"name":"Chaumes-en-Brie","slug":"chaumes-en-brie","department_code":"77","zip_code":"77390","gps_lat":48.66644418750002,"gps_lng":2.8417898125},{"id":30741,"name":"Chelles","slug":"chelles","department_code":"77","zip_code":"77500","gps_lat":48.88420598639454,"gps_lng":2.59006829931973},{"id":30742,"name":"Chenoise","slug":"chenoise","department_code":"77","zip_code":"77160","gps_lat":48.62407185185187,"gps_lng":3.19327259259259},{"id":30743,"name":"Chenou","slug":"chenou","department_code":"77","zip_code":"77570","gps_lat":48.16107156862745,"gps_lng":2.6523160784313697},{"id":30744,"name":"Chessy","slug":"chessy","department_code":"77","zip_code":"77700","gps_lat":48.87084216666667,"gps_lng":2.77046716666667},{"id":30745,"name":"Chevrainvilliers","slug":"chevrainvilliers","department_code":"77","zip_code":"77760","gps_lat":48.24477020833334,"gps_lng":2.6089670833333303},{"id":30746,"name":"Chevru","slug":"chevru","department_code":"77","zip_code":"77320","gps_lat":48.73846873949577,"gps_lng":3.18714394957983},{"id":30747,"name":"Chevry-Cossigny","slug":"chevry-cossigny","department_code":"77","zip_code":"77173","gps_lat":48.7223964835165,"gps_lng":2.67365428571429},{"id":30748,"name":"Chevry-en-Sereine","slug":"chevry-en-sereine","department_code":"77","zip_code":"77710","gps_lat":48.24888562913906,"gps_lng":2.96322854304636},{"id":30749,"name":"Choisy-en-Brie","slug":"choisy-en-brie","department_code":"77","zip_code":"77320","gps_lat":48.76309663865548,"gps_lng":3.20208394957983},{"id":30750,"name":"Citry","slug":"citry","department_code":"77","zip_code":"77730","gps_lat":48.95788716666667,"gps_lng":3.24822466666667},{"id":30751,"name":"Claye-Souilly","slug":"claye-souilly","department_code":"77","zip_code":"77410","gps_lat":48.94056559999999,"gps_lng":2.67686184},{"id":30752,"name":"Clos-Fontaine","slug":"clos-fontaine","department_code":"77","zip_code":"77370","gps_lat":48.60387260869566,"gps_lng":3.01243739130435},{"id":30753,"name":"Cocherel","slug":"cocherel","department_code":"77","zip_code":"77440","gps_lat":49.01867,"gps_lng":3.09339448979592},{"id":30754,"name":"Collégien","slug":"collegien","department_code":"77","zip_code":"77090","gps_lat":48.82777658536587,"gps_lng":2.67749414634146},{"id":30755,"name":"Combs-la-Ville","slug":"combs-la-ville","department_code":"77","zip_code":"77380","gps_lat":48.66286702702703,"gps_lng":2.57381495495496},{"id":30756,"name":"Compans","slug":"compans","department_code":"77","zip_code":"77290","gps_lat":48.98606545454545,"gps_lng":2.66183220779221},{"id":30757,"name":"Conches-sur-Gondoire","slug":"conches-sur-gondoire","department_code":"77","zip_code":"77600","gps_lat":48.85798545454546,"gps_lng":2.7215396969697},{"id":30758,"name":"Condé-Sainte-Libiaire","slug":"conde-sainte-libiaire","department_code":"77","zip_code":"77450","gps_lat":48.89850491525421,"gps_lng":2.83481661016949},{"id":30759,"name":"Congis-sur-Thérouanne","slug":"congis-sur-therouanne","department_code":"77","zip_code":"77440","gps_lat":49.01728294117647,"gps_lng":2.97718470588235},{"id":30760,"name":"Coubert","slug":"coubert","department_code":"77","zip_code":"77170","gps_lat":48.68099146067416,"gps_lng":2.71208348314607},{"id":30761,"name":"Couilly-Pont-aux-Dames","slug":"couilly-pont-aux-dames","department_code":"77","zip_code":"77860","gps_lat":48.88321702380953,"gps_lng":2.86306488095238},{"id":30762,"name":"Coulombs-en-Valois","slug":"coulombs-en-valois","department_code":"77","zip_code":"77840","gps_lat":49.08156694300517,"gps_lng":3.12716564766839},{"id":30763,"name":"Coulommes","slug":"coulommes","department_code":"77","zip_code":"77580","gps_lat":48.89359852459016,"gps_lng":2.92558786885246},{"id":30764,"name":"Coulommiers","slug":"coulommiers","department_code":"77","zip_code":"77120","gps_lat":48.81560180451127,"gps_lng":3.0969506015037602},{"id":30765,"name":"Coupvray","slug":"coupvray","department_code":"77","zip_code":"77700","gps_lat":48.89023433333332,"gps_lng":2.79237183333333},{"id":30766,"name":"Courcelles-en-Bassée","slug":"courcelles-en-bassee","department_code":"77","zip_code":"77126","gps_lat":48.41026553191491,"gps_lng":3.05020368794326},{"id":30767,"name":"Courchamp","slug":"courchamp","department_code":"77","zip_code":"77560","gps_lat":48.64381560439561,"gps_lng":3.2896971428571398},{"id":30768,"name":"Courpalay","slug":"courpalay","department_code":"77","zip_code":"77540","gps_lat":48.64141223021583,"gps_lng":2.95880604316547},{"id":30769,"name":"Courquetaine","slug":"courquetaine","department_code":"77","zip_code":"77390","gps_lat":48.67928010989011,"gps_lng":2.7445016483516502},{"id":30770,"name":"Courtacon","slug":"courtacon","department_code":"77","zip_code":"77560","gps_lat":48.70028330188678,"gps_lng":3.29205094339623},{"id":30771,"name":"Courtomer","slug":"courtomer","department_code":"77","zip_code":"77390","gps_lat":48.65891800000001,"gps_lng":2.89573644444444},{"id":30772,"name":"Courtry","slug":"courtry","department_code":"77","zip_code":"77181","gps_lat":48.91922243243242,"gps_lng":2.5994527027027},{"id":30773,"name":"Coutençon","slug":"coutencon","department_code":"77","zip_code":"77154","gps_lat":48.47410927272728,"gps_lng":2.99627763636364},{"id":30774,"name":"Coutevroult","slug":"coutevroult","department_code":"77","zip_code":"77580","gps_lat":48.85323324324323,"gps_lng":2.8483248648648702},{"id":30775,"name":"Crécy-la-Chapelle","slug":"crecy-la-chapelle","department_code":"77","zip_code":"77580","gps_lat":48.85548583333332,"gps_lng":2.9199346969697},{"id":30776,"name":"Crégy-lès-Meaux","slug":"cregy-les-meaux","department_code":"77","zip_code":"77124","gps_lat":48.97593320754719,"gps_lng":2.87409622641509},{"id":30777,"name":"Crèvecœur-en-Brie","slug":"crevecoeur-en-brie","department_code":"77","zip_code":"77610","gps_lat":48.74903140625,"gps_lng":2.9035392187499998},{"id":30778,"name":"Crisenoy","slug":"crisenoy","department_code":"77","zip_code":"77390","gps_lat":48.60612761904764,"gps_lng":2.74483738095238},{"id":30779,"name":"Croissy-Beaubourg","slug":"croissy-beaubourg","department_code":"77","zip_code":"77183","gps_lat":48.81297800000001,"gps_lng":2.6453424444444398},{"id":30780,"name":"La Croix-en-Brie","slug":"la-croix-en-brie","department_code":"77","zip_code":"77370","gps_lat":48.59506946308726,"gps_lng":3.06434046979866},{"id":30781,"name":"Crouy-sur-Ourcq","slug":"crouy-sur-ourcq","department_code":"77","zip_code":"77840","gps_lat":49.0900502439024,"gps_lng":3.08073795121951},{"id":30782,"name":"Cucharmoy","slug":"cucharmoy","department_code":"77","zip_code":"77160","gps_lat":48.58556599999999,"gps_lng":3.17764422222222},{"id":30783,"name":"Cuisy","slug":"cuisy","department_code":"77","zip_code":"77165","gps_lat":49.01891188679245,"gps_lng":2.77611867924528},{"id":30784,"name":"Dagny","slug":"dagny","department_code":"77","zip_code":"77320","gps_lat":48.71366,"gps_lng":3.16504353658537},{"id":30785,"name":"Dammarie-les-Lys","slug":"dammarie-les-lys","department_code":"77","zip_code":"77190","gps_lat":48.51661191489362,"gps_lng":2.62008659574468},{"id":30786,"name":"Dammartin-en-Goële","slug":"dammartin-en-goele","department_code":"77","zip_code":"77230","gps_lat":49.05349525000001,"gps_lng":2.6775873333333298},{"id":30787,"name":"Dammartin-sur-Tigeaux","slug":"dammartin-sur-tigeaux","department_code":"77","zip_code":"77163","gps_lat":48.8136517647059,"gps_lng":2.91654397058823},{"id":30788,"name":"Dampmart","slug":"dampmart","department_code":"77","zip_code":"77400","gps_lat":48.89428142857142,"gps_lng":2.74288653061224},{"id":30789,"name":"Darvault","slug":"darvault","department_code":"77","zip_code":"77140","gps_lat":48.27661032786884,"gps_lng":2.72365327868852},{"id":30790,"name":"Dhuisy","slug":"dhuisy","department_code":"77","zip_code":"77440","gps_lat":49.03502148936171,"gps_lng":3.1652259574468102},{"id":30791,"name":"Diant","slug":"diant","department_code":"77","zip_code":"77940","gps_lat":48.29102431372549,"gps_lng":3.00184735294118},{"id":30792,"name":"Donnemarie-Dontilly","slug":"donnemarie-dontilly","department_code":"77","zip_code":"77520","gps_lat":48.48020708955222,"gps_lng":3.11879216417911},{"id":30793,"name":"Dormelles","slug":"dormelles","department_code":"77","zip_code":"77130","gps_lat":48.31453531914896,"gps_lng":2.88516865248227},{"id":30794,"name":"Doue","slug":"doue","department_code":"77","zip_code":"77510","gps_lat":48.87647066666666,"gps_lng":3.1650836},{"id":30795,"name":"Douy-la-Ramée","slug":"douy-la-ramee","department_code":"77","zip_code":"77139","gps_lat":49.0592612195122,"gps_lng":2.88457227642276},{"id":30796,"name":"Échouboulains","slug":"echouboulains","department_code":"77","zip_code":"77830","gps_lat":48.46791300813006,"gps_lng":2.93019211382114},{"id":30797,"name":"Les Écrennes","slug":"les-ecrennes","department_code":"77","zip_code":"77820","gps_lat":48.4986270212766,"gps_lng":2.87610234042553},{"id":30798,"name":"Égligny","slug":"egligny","department_code":"77","zip_code":"77126","gps_lat":48.43687673076925,"gps_lng":3.12897557692308},{"id":30799,"name":"Égreville","slug":"egreville","department_code":"77","zip_code":"77620","gps_lat":48.18774314814817,"gps_lng":2.8833787962963},{"id":30800,"name":"Émerainville","slug":"emerainville","department_code":"77","zip_code":"77184","gps_lat":48.81940481481482,"gps_lng":2.60728333333333},{"id":30801,"name":"Esbly","slug":"esbly","department_code":"77","zip_code":"77450","gps_lat":48.90163306451613,"gps_lng":2.81305661290322},{"id":30802,"name":"Esmans","slug":"esmans","department_code":"77","zip_code":"77940","gps_lat":48.34190316326533,"gps_lng":2.96783408163265},{"id":30803,"name":"Étrépilly","slug":"etrepilly","department_code":"77","zip_code":"77139","gps_lat":49.0469431034483,"gps_lng":2.92895862068966},{"id":30804,"name":"Everly","slug":"everly","department_code":"77","zip_code":"77157","gps_lat":48.4564426744186,"gps_lng":3.26809697674419},{"id":30805,"name":"Évry-Grégy-sur-Yerre","slug":"evry-gregy-sur-yerre","department_code":"77","zip_code":"77166","gps_lat":48.65567279999999,"gps_lng":2.64520897142857},{"id":30806,"name":"Faremoutiers","slug":"faremoutiers","department_code":"77","zip_code":"77515","gps_lat":48.77916628571428,"gps_lng":3.00231257142857},{"id":30807,"name":"Favières","slug":"favieres","department_code":"77","zip_code":"77220","gps_lat":48.77847990909093,"gps_lng":2.76852436363636},{"id":30808,"name":"Faÿ-lès-Nemours","slug":"fay-les-nemours","department_code":"77","zip_code":"77167","gps_lat":48.226553,"gps_lng":2.6609920000000002},{"id":30809,"name":"Féricy","slug":"fericy","department_code":"77","zip_code":"77133","gps_lat":48.46323406779662,"gps_lng":2.80451949152542},{"id":30810,"name":"Férolles-Attilly","slug":"ferolles-attilly","department_code":"77","zip_code":"77150","gps_lat":48.73671792792793,"gps_lng":2.6394754954954998},{"id":30811,"name":"Ferrières-en-Brie","slug":"ferrieres-en-brie","department_code":"77","zip_code":"77164","gps_lat":48.81941611111109,"gps_lng":2.7101427777777802},{"id":30812,"name":"La Ferté-Gaucher","slug":"la-ferte-gaucher","department_code":"77","zip_code":"77320","gps_lat":48.78955665048545,"gps_lng":3.30769359223301},{"id":30813,"name":"La Ferté-sous-Jouarre","slug":"la-ferte-sous-jouarre","department_code":"77","zip_code":"77260","gps_lat":48.94984402234637,"gps_lng":3.13578446927374},{"id":30814,"name":"Flagy","slug":"flagy","department_code":"77","zip_code":"77940","gps_lat":48.3099030693069,"gps_lng":2.91883297029703},{"id":30815,"name":"Fleury-en-Bière","slug":"fleury-en-biere","department_code":"77","zip_code":"77930","gps_lat":48.44844631147541,"gps_lng":2.54258442622951},{"id":30816,"name":"Fontainebleau","slug":"fontainebleau","department_code":"77","zip_code":"77300","gps_lat":48.42044948905109,"gps_lng":2.69089734793188},{"id":30817,"name":"Fontaine-Fourches","slug":"fontaine-fourches","department_code":"77","zip_code":"77480","gps_lat":48.4134969354839,"gps_lng":3.39914435483871},{"id":30818,"name":"Fontaine-le-Port","slug":"fontaine-le-port","department_code":"77","zip_code":"77590","gps_lat":48.47995638554217,"gps_lng":2.7733662650602398},{"id":30819,"name":"Fontains","slug":"fontains","department_code":"77","zip_code":"77370","gps_lat":48.52446037037036,"gps_lng":3.00881785185185},{"id":30820,"name":"Fontenailles","slug":"fontenailles","department_code":"77","zip_code":"77370","gps_lat":48.52386836257307,"gps_lng":2.92366771929824},{"id":30821,"name":"Fontenay-Trésigny","slug":"fontenay-tresigny","department_code":"77","zip_code":"77610","gps_lat":48.69937090322579,"gps_lng":2.86363283870968},{"id":30822,"name":"Forfry","slug":"forfry","department_code":"77","zip_code":"77165","gps_lat":49.05494492957745,"gps_lng":2.85908464788732},{"id":30823,"name":"Forges","slug":"forges","department_code":"77","zip_code":"77130","gps_lat":48.41925279999999,"gps_lng":2.9459239999999998},{"id":30824,"name":"Fouju","slug":"fouju","department_code":"77","zip_code":"77390","gps_lat":48.58837369565217,"gps_lng":2.76587260869565},{"id":30825,"name":"Fresnes-sur-Marne","slug":"fresnes-sur-marne","department_code":"77","zip_code":"77410","gps_lat":48.94333982142859,"gps_lng":2.736865},{"id":30826,"name":"Frétoy","slug":"fretoy","department_code":"77","zip_code":"77320","gps_lat":48.70402343283581,"gps_lng":3.19858641791045},{"id":30827,"name":"Fromont","slug":"fromont","department_code":"77","zip_code":"77760","gps_lat":48.25455361702127,"gps_lng":2.50494212765957},{"id":30828,"name":"Fublaines","slug":"fublaines","department_code":"77","zip_code":"77470","gps_lat":48.93737370786515,"gps_lng":2.94732325842697},{"id":30829,"name":"Garentreville","slug":"garentreville","department_code":"77","zip_code":"77890","gps_lat":48.23449181818181,"gps_lng":2.55604121212121},{"id":30830,"name":"Gastins","slug":"gastins","department_code":"77","zip_code":"77370","gps_lat":48.62658258064516,"gps_lng":3.02236475806452},{"id":30831,"name":"La Genevraye","slug":"la-genevraye","department_code":"77","zip_code":"77690","gps_lat":48.31468241071429,"gps_lng":2.75702544642857},{"id":30832,"name":"Germigny-l'Évêque","slug":"germigny-l-eveque","department_code":"77","zip_code":"77910","gps_lat":48.98824750000001,"gps_lng":2.95620890625},{"id":30833,"name":"Germigny-sous-Coulombs","slug":"germigny-sous-coulombs","department_code":"77","zip_code":"77840","gps_lat":49.06190428571428,"gps_lng":3.15669657142857},{"id":30834,"name":"Gesvres-le-Chapitre","slug":"gesvres-le-chapitre","department_code":"77","zip_code":"77165","gps_lat":49.03256314814814,"gps_lng":2.84012055555556},{"id":30835,"name":"Giremoutiers","slug":"giremoutiers","department_code":"77","zip_code":"77120","gps_lat":48.8531709090909,"gps_lng":3.03066787878788},{"id":30836,"name":"Gironville","slug":"gironville","department_code":"77","zip_code":"77890","gps_lat":48.16719475409838,"gps_lng":2.53093836065574},{"id":30837,"name":"Gouaix","slug":"gouaix","department_code":"77","zip_code":"77114","gps_lat":48.47501109999999,"gps_lng":3.2973656},{"id":30838,"name":"Gouvernes","slug":"gouvernes","department_code":"77","zip_code":"77400","gps_lat":48.85801285714285,"gps_lng":2.689265},{"id":30839,"name":"La Grande-Paroisse","slug":"la-grande-paroisse","department_code":"77","zip_code":"77130","gps_lat":48.39277567375888,"gps_lng":2.88901191489362},{"id":30840,"name":"Grandpuits-Bailly-Carrois","slug":"grandpuits-bailly-carrois","department_code":"77","zip_code":"77720","gps_lat":48.58123340277778,"gps_lng":2.9724179166666698},{"id":30841,"name":"Gravon","slug":"gravon","department_code":"77","zip_code":"77118","gps_lat":48.39279102272728,"gps_lng":3.12492545454545},{"id":30842,"name":"Gressy","slug":"gressy","department_code":"77","zip_code":"77410","gps_lat":48.96693684931509,"gps_lng":2.66842863013699},{"id":30843,"name":"Gretz-Armainvilliers","slug":"gretz-armainvilliers","department_code":"77","zip_code":"77220","gps_lat":48.74366000000002,"gps_lng":2.72918033707865},{"id":30844,"name":"Grez-sur-Loing","slug":"grez-sur-loing","department_code":"77","zip_code":"77880","gps_lat":48.30823591397849,"gps_lng":2.69073559139785},{"id":30845,"name":"Grisy-Suisnes","slug":"grisy-suisnes","department_code":"77","zip_code":"77166","gps_lat":48.67814323741007,"gps_lng":2.6747840287769797},{"id":30846,"name":"Grisy-sur-Seine","slug":"grisy-sur-seine","department_code":"77","zip_code":"77480","gps_lat":48.4408374285714,"gps_lng":3.31643380952381},{"id":30847,"name":"Guérard","slug":"guerard","department_code":"77","zip_code":"77580","gps_lat":48.81406878378379,"gps_lng":2.94734371621622},{"id":30848,"name":"Guercheville","slug":"guercheville","department_code":"77","zip_code":"77760","gps_lat":48.2583948275862,"gps_lng":2.5544075862069002},{"id":30849,"name":"Guermantes","slug":"guermantes","department_code":"77","zip_code":"77600","gps_lat":48.85236235294117,"gps_lng":2.71469235294118},{"id":30850,"name":"Guignes","slug":"guignes","department_code":"77","zip_code":"77390","gps_lat":48.63679677083334,"gps_lng":2.80469447916667},{"id":30851,"name":"Gurcy-le-Châtel","slug":"gurcy-le-chatel","department_code":"77","zip_code":"77520","gps_lat":48.48637967032965,"gps_lng":3.08138032967033},{"id":30852,"name":"Hautefeuille","slug":"hautefeuille","department_code":"77","zip_code":"77515","gps_lat":48.76857770833335,"gps_lng":2.96591020833333},{"id":30853,"name":"La Haute-Maison","slug":"la-haute-maison","department_code":"77","zip_code":"77580","gps_lat":48.88342253164557,"gps_lng":3.00960898734177},{"id":30854,"name":"Héricy","slug":"hericy","department_code":"77","zip_code":"77850","gps_lat":48.44467837837838,"gps_lng":2.784845},{"id":30855,"name":"Hermé","slug":"herme","department_code":"77","zip_code":"77114","gps_lat":48.4804709009009,"gps_lng":3.35343747747748},{"id":30856,"name":"Hondevilliers","slug":"hondevilliers","department_code":"77","zip_code":"77510","gps_lat":48.89940857142855,"gps_lng":3.311795},{"id":30857,"name":"La Houssaye-en-Brie","slug":"la-houssaye-en-brie","department_code":"77","zip_code":"77610","gps_lat":48.75475302521009,"gps_lng":2.86806781512605},{"id":30858,"name":"Ichy","slug":"ichy","department_code":"77","zip_code":"77890","gps_lat":48.20273137931035,"gps_lng":2.54208344827586},{"id":30859,"name":"Isles-les-Meldeuses","slug":"isles-les-meldeuses","department_code":"77","zip_code":"77440","gps_lat":48.99984230769231,"gps_lng":3.01250615384615},{"id":30860,"name":"Isles-lès-Villenoy","slug":"isles-les-villenoy","department_code":"77","zip_code":"77450","gps_lat":48.911995,"gps_lng":2.83027454545454},{"id":30861,"name":"Iverny","slug":"iverny","department_code":"77","zip_code":"77165","gps_lat":48.99874358974358,"gps_lng":2.78887948717949},{"id":30862,"name":"Jablines","slug":"jablines","department_code":"77","zip_code":"77450","gps_lat":48.91586,"gps_lng":2.75689438356164},{"id":30863,"name":"Jaignes","slug":"jaignes","department_code":"77","zip_code":"77440","gps_lat":48.98676499999998,"gps_lng":3.08389412280702},{"id":30864,"name":"Jaulnes","slug":"jaulnes","department_code":"77","zip_code":"77480","gps_lat":48.41863547486034,"gps_lng":3.28138541899442},{"id":30865,"name":"Jossigny","slug":"jossigny","department_code":"77","zip_code":"77600","gps_lat":48.83475720588237,"gps_lng":2.76140264705882},{"id":30866,"name":"Jouarre","slug":"jouarre","department_code":"77","zip_code":"77640","gps_lat":48.90890880813954,"gps_lng":3.12395938953488},{"id":30867,"name":"Jouy-le-Châtel","slug":"jouy-le-chatel","department_code":"77","zip_code":"77970","gps_lat":48.67449974999999,"gps_lng":3.15114183333333},{"id":30868,"name":"Jouy-sur-Morin","slug":"jouy-sur-morin","department_code":"77","zip_code":"77320","gps_lat":48.79673496000001,"gps_lng":3.27085496},{"id":30869,"name":"Juilly","slug":"juilly","department_code":"77","zip_code":"77230","gps_lat":49.02337547169812,"gps_lng":2.71309320754717},{"id":30870,"name":"Jutigny","slug":"jutigny","department_code":"77","zip_code":"77650","gps_lat":48.49291415384614,"gps_lng":3.22460784615385},{"id":30871,"name":"Lagny-sur-Marne","slug":"lagny-sur-marne","department_code":"77","zip_code":"77400","gps_lat":48.8729963076923,"gps_lng":2.7124638461538497},{"id":30872,"name":"Larchant","slug":"larchant","department_code":"77","zip_code":"77760","gps_lat":48.29143010989011,"gps_lng":2.6056762637362603},{"id":30873,"name":"Laval-en-Brie","slug":"laval-en-brie","department_code":"77","zip_code":"77148","gps_lat":48.45542426086956,"gps_lng":2.97236208695652},{"id":30874,"name":"Léchelle","slug":"lechelle","department_code":"77","zip_code":"77171","gps_lat":48.56821574468083,"gps_lng":3.3882170212766},{"id":30875,"name":"Lescherolles","slug":"lescherolles","department_code":"77","zip_code":"77320","gps_lat":48.76290194244604,"gps_lng":3.35520316546763},{"id":30876,"name":"Lesches","slug":"lesches","department_code":"77","zip_code":"77450","gps_lat":48.91428148148149,"gps_lng":2.7951737037037},{"id":30877,"name":"Lésigny","slug":"lesigny","department_code":"77","zip_code":"77150","gps_lat":48.74926924369748,"gps_lng":2.62192655462185},{"id":30878,"name":"Leudon-en-Brie","slug":"leudon-en-brie","department_code":"77","zip_code":"77320","gps_lat":48.7304543076923,"gps_lng":3.27009353846154},{"id":30879,"name":"Lieusaint","slug":"lieusaint","department_code":"77","zip_code":"77127","gps_lat":48.63014764705884,"gps_lng":2.55379682352941},{"id":30880,"name":"Limoges-Fourches","slug":"limoges-fourches","department_code":"77","zip_code":"77550","gps_lat":48.62724213483144,"gps_lng":2.66928393258427},{"id":30881,"name":"Lissy","slug":"lissy","department_code":"77","zip_code":"77550","gps_lat":48.61822457142858,"gps_lng":2.70070257142857},{"id":30882,"name":"Liverdy-en-Brie","slug":"liverdy-en-brie","department_code":"77","zip_code":"77220","gps_lat":48.69654592592592,"gps_lng":2.77640407407407},{"id":30883,"name":"Livry-sur-Seine","slug":"livry-sur-seine","department_code":"77","zip_code":"77000","gps_lat":48.50691298245614,"gps_lng":2.6911854385964897},{"id":30884,"name":"Lizines","slug":"lizines","department_code":"77","zip_code":"77650","gps_lat":48.5294384057971,"gps_lng":3.16523217391305},{"id":30885,"name":"Lizy-sur-Ourcq","slug":"lizy-sur-ourcq","department_code":"77","zip_code":"77440","gps_lat":49.03469581395348,"gps_lng":3.02108093023256},{"id":30886,"name":"Lognes","slug":"lognes","department_code":"77","zip_code":"77185","gps_lat":48.83369255813954,"gps_lng":2.63750372093023},{"id":30887,"name":"Longperrier","slug":"longperrier","department_code":"77","zip_code":"77230","gps_lat":49.05042717391303,"gps_lng":2.6572719565217398},{"id":30888,"name":"Longueville","slug":"longueville","department_code":"77","zip_code":"77650","gps_lat":48.51575898876406,"gps_lng":3.23616629213483},{"id":30889,"name":"Lorrez-le-Bocage-Préaux","slug":"lorrez-le-bocage-preaux","department_code":"77","zip_code":"77710","gps_lat":48.23725553030303,"gps_lng":2.89285522727273},{"id":30890,"name":"Louan-Villegruis-Fontaine","slug":"louan-villegruis-fontaine","department_code":"77","zip_code":"77560","gps_lat":48.62177280701754,"gps_lng":3.49884830409357},{"id":30891,"name":"Luisetaines","slug":"luisetaines","department_code":"77","zip_code":"77520","gps_lat":48.46226350649351,"gps_lng":3.19157077922078},{"id":30892,"name":"Lumigny-Nesles-Ormeaux","slug":"lumigny-nesles-ormeaux","department_code":"77","zip_code":"77540","gps_lat":48.71573222857146,"gps_lng":2.96252914285714},{"id":30893,"name":"Luzancy","slug":"luzancy","department_code":"77","zip_code":"77138","gps_lat":48.97381825396825,"gps_lng":3.1797753968254},{"id":30894,"name":"Machault","slug":"machault","department_code":"77","zip_code":"77133","gps_lat":48.45307858407079,"gps_lng":2.84541309734513},{"id":30895,"name":"La Madeleine-sur-Loing","slug":"la-madeleine-sur-loing","department_code":"77","zip_code":"77570","gps_lat":48.20529039473686,"gps_lng":2.70163960526316},{"id":30896,"name":"Magny-le-Hongre","slug":"magny-le-hongre","department_code":"77","zip_code":"77700","gps_lat":48.86788612500002,"gps_lng":2.819585375},{"id":30897,"name":"Maincy","slug":"maincy","department_code":"77","zip_code":"77950","gps_lat":48.55420769230769,"gps_lng":2.7071512820512798},{"id":30898,"name":"Maisoncelles-en-Brie","slug":"maisoncelles-en-brie","department_code":"77","zip_code":"77580","gps_lat":48.85696586206898,"gps_lng":3.0036174137931},{"id":30899,"name":"Maisoncelles-en-Gâtinais","slug":"maisoncelles-en-gatinais","department_code":"77","zip_code":"77570","gps_lat":48.1851548888889,"gps_lng":2.61783822222222},{"id":30900,"name":"Maison-Rouge","slug":"maison-rouge","department_code":"77","zip_code":"77370","gps_lat":48.5543466101695,"gps_lng":3.15407449152542},{"id":30901,"name":"Marchémoret","slug":"marchemoret","department_code":"77","zip_code":"77230","gps_lat":49.05307426229508,"gps_lng":2.7521752459016398},{"id":30902,"name":"Marcilly","slug":"marcilly","department_code":"77","zip_code":"77139","gps_lat":49.03732954545455,"gps_lng":2.88554118181818},{"id":30903,"name":"Les Marêts","slug":"les-marets","department_code":"77","zip_code":"77560","gps_lat":48.67380366197184,"gps_lng":3.31872281690141},{"id":30904,"name":"Mareuil-lès-Meaux","slug":"mareuil-les-meaux","department_code":"77","zip_code":"77100","gps_lat":48.91889101449275,"gps_lng":2.87624985507246},{"id":30905,"name":"Marles-en-Brie","slug":"marles-en-brie","department_code":"77","zip_code":"77610","gps_lat":48.72693999999999,"gps_lng":2.8797540677966103},{"id":30906,"name":"Marolles-en-Brie","slug":"marolles-en-brie","department_code":"77","zip_code":"77120","gps_lat":48.77578623188406,"gps_lng":3.16797956521739},{"id":30907,"name":"Marolles-sur-Seine","slug":"marolles-sur-seine","department_code":"77","zip_code":"77130","gps_lat":48.38555063829786,"gps_lng":3.0295190070922},{"id":30908,"name":"Mary-sur-Marne","slug":"mary-sur-marne","department_code":"77","zip_code":"77440","gps_lat":49.01541886363637,"gps_lng":3.03139704545455},{"id":30909,"name":"Mauperthuis","slug":"mauperthuis","department_code":"77","zip_code":"77120","gps_lat":48.7670007142857,"gps_lng":3.03613642857143},{"id":30910,"name":"Mauregard","slug":"mauregard","department_code":"77","zip_code":"77990","gps_lat":49.02653430107527,"gps_lng":2.56905247311828},{"id":30911,"name":"May-en-Multien","slug":"may-en-multien","department_code":"77","zip_code":"77145","gps_lat":49.06931030075188,"gps_lng":3.03301240601504},{"id":30912,"name":"Meaux","slug":"meaux","department_code":"77","zip_code":"77100","gps_lat":48.95765236363639,"gps_lng":2.89053336363636},{"id":30913,"name":"Le Mée-sur-Seine","slug":"le-mee-sur-seine","department_code":"77","zip_code":"77350","gps_lat":48.54078936170213,"gps_lng":2.63065872340426},{"id":30914,"name":"Meigneux","slug":"meigneux","department_code":"77","zip_code":"77520","gps_lat":48.5133120652174,"gps_lng":3.09477108695652},{"id":30915,"name":"Meilleray","slug":"meilleray","department_code":"77","zip_code":"77320","gps_lat":48.79599839416057,"gps_lng":3.41914656934306},{"id":30916,"name":"Melun","slug":"melun","department_code":"77","zip_code":"77000","gps_lat":48.54081305882353,"gps_lng":2.65851670588235},{"id":30917,"name":"Melz-sur-Seine","slug":"melz-sur-seine","department_code":"77","zip_code":"77171","gps_lat":48.4909431932773,"gps_lng":3.4050015966386598},{"id":30918,"name":"Méry-sur-Marne","slug":"mery-sur-marne","department_code":"77","zip_code":"77730","gps_lat":48.97499050847457,"gps_lng":3.20300728813559},{"id":30919,"name":"Le Mesnil-Amelot","slug":"le-mesnil-amelot","department_code":"77","zip_code":"77990","gps_lat":49.01701056074765,"gps_lng":2.59546046728972},{"id":30920,"name":"Messy","slug":"messy","department_code":"77","zip_code":"77410","gps_lat":48.96618917647059,"gps_lng":2.68945729411765},{"id":30921,"name":"Misy-sur-Yonne","slug":"misy-sur-yonne","department_code":"77","zip_code":"77130","gps_lat":48.36345746031746,"gps_lng":3.09524936507936},{"id":30922,"name":"Mitry-Mory","slug":"mitry-mory","department_code":"77","zip_code":"77290","gps_lat":48.97789846938777,"gps_lng":2.6184787755102},{"id":30923,"name":"Moisenay","slug":"moisenay","department_code":"77","zip_code":"77950","gps_lat":48.56305129411765,"gps_lng":2.74284129411765},{"id":30924,"name":"Moissy-Cramayel","slug":"moissy-cramayel","department_code":"77","zip_code":"77550","gps_lat":48.62431416666666,"gps_lng":2.59503819444444},{"id":30925,"name":"Mondreville","slug":"mondreville","department_code":"77","zip_code":"77570","gps_lat":48.14929910714285,"gps_lng":2.60455},{"id":30926,"name":"Mons-en-Montois","slug":"mons-en-montois","department_code":"77","zip_code":"77520","gps_lat":48.49113021739128,"gps_lng":3.13941619565217},{"id":30927,"name":"Montceaux-lès-Meaux","slug":"montceaux-les-meaux","department_code":"77","zip_code":"77470","gps_lat":48.94585739726027,"gps_lng":2.99587123287671},{"id":30928,"name":"Montceaux-lès-Provins","slug":"montceaux-les-provins","department_code":"77","zip_code":"77151","gps_lat":48.69484369369371,"gps_lng":3.4447263963964},{"id":30929,"name":"Montcourt-Fromonville","slug":"montcourt-fromonville","department_code":"77","zip_code":"77140","gps_lat":48.30169902777778,"gps_lng":2.70997694444444},{"id":30930,"name":"Montdauphin","slug":"montdauphin","department_code":"77","zip_code":"77320","gps_lat":48.85457675675676,"gps_lng":3.42352533783784},{"id":30931,"name":"Montenils","slug":"montenils","department_code":"77","zip_code":"77320","gps_lat":48.83108351351351,"gps_lng":3.47602621621622},{"id":30932,"name":"Montereau-Fault-Yonne","slug":"montereau-fault-yonne","department_code":"77","zip_code":"77130","gps_lat":48.38660657142858,"gps_lng":2.96337304761905},{"id":30933,"name":"Montereau-sur-le-Jard","slug":"montereau-sur-le-jard","department_code":"77","zip_code":"77950","gps_lat":48.59992044776121,"gps_lng":2.67439358208955},{"id":30934,"name":"Montévrain","slug":"montevrain","department_code":"77","zip_code":"77144","gps_lat":48.86482014925374,"gps_lng":2.75248313432836},{"id":30935,"name":"Montgé-en-Goële","slug":"montge-en-goele","department_code":"77","zip_code":"77230","gps_lat":49.0266325742574,"gps_lng":2.7397370297029697},{"id":30936,"name":"Monthyon","slug":"monthyon","department_code":"77","zip_code":"77122","gps_lat":49.01276643835615,"gps_lng":2.83213191780822},{"id":30937,"name":"Montigny-le-Guesdier","slug":"montigny-le-guesdier","department_code":"77","zip_code":"77480","gps_lat":48.3823232835821,"gps_lng":3.25355044776119},{"id":30938,"name":"Montigny-Lencoup","slug":"montigny-lencoup","department_code":"77","zip_code":"77520","gps_lat":48.45362969696969,"gps_lng":3.06013909090909},{"id":30939,"name":"Montigny-sur-Loing","slug":"montigny-sur-loing","department_code":"77","zip_code":"77690","gps_lat":48.33982885714287,"gps_lng":2.75604157142857},{"id":30940,"name":"Montmachoux","slug":"montmachoux","department_code":"77","zip_code":"77940","gps_lat":48.31936742857143,"gps_lng":2.99252085714286},{"id":30941,"name":"Montolivet","slug":"montolivet","department_code":"77","zip_code":"77320","gps_lat":48.83061008849558,"gps_lng":3.43069769911504},{"id":30942,"name":"Montry","slug":"montry","department_code":"77","zip_code":"77450","gps_lat":48.88632954545456,"gps_lng":2.8273919696969703},{"id":30943,"name":"Moret-Loing-et-Orvanne","slug":"moret-loing-et-orvanne","department_code":"77","zip_code":"77250","gps_lat":48.35207140350877,"gps_lng":2.81640877192982},{"id":30944,"name":"Mormant","slug":"mormant","department_code":"77","zip_code":"77720","gps_lat":48.60163883720931,"gps_lng":2.87793573643411},{"id":30945,"name":"Mortcerf","slug":"mortcerf","department_code":"77","zip_code":"77163","gps_lat":48.78394176470587,"gps_lng":2.89764514705882},{"id":30946,"name":"Mortery","slug":"mortery","department_code":"77","zip_code":"77160","gps_lat":48.58968207547172,"gps_lng":3.25018113207547},{"id":30947,"name":"Mouroux","slug":"mouroux","department_code":"77","zip_code":"77120","gps_lat":48.82662645669291,"gps_lng":3.05247322834645},{"id":30948,"name":"Mousseaux-lès-Bray","slug":"mousseaux-les-bray","department_code":"77","zip_code":"77480","gps_lat":48.399787272727266,"gps_lng":3.23050424242424},{"id":30949,"name":"Moussy-le-Neuf","slug":"moussy-le-neuf","department_code":"77","zip_code":"77230","gps_lat":49.07098702127659,"gps_lng":2.61188670212766},{"id":30950,"name":"Moussy-le-Vieux","slug":"moussy-le-vieux","department_code":"77","zip_code":"77230","gps_lat":49.04788666666667,"gps_lng":2.62045986111111},{"id":30951,"name":"Mouy-sur-Seine","slug":"mouy-sur-seine","department_code":"77","zip_code":"77480","gps_lat":48.43253851562499,"gps_lng":3.243445234375},{"id":30952,"name":"Nandy","slug":"nandy","department_code":"77","zip_code":"77176","gps_lat":48.58176098591551,"gps_lng":2.54876971830986},{"id":30953,"name":"Nangis","slug":"nangis","department_code":"77","zip_code":"77370","gps_lat":48.55192962499998,"gps_lng":3.01172675},{"id":30954,"name":"Nanteau-sur-Essonne","slug":"nanteau-sur-essonne","department_code":"77","zip_code":"77760","gps_lat":48.32001482142857,"gps_lng":2.41490598214286},{"id":30955,"name":"Nanteau-sur-Lunain","slug":"nanteau-sur-lunain","department_code":"77","zip_code":"77710","gps_lat":48.25538956043956,"gps_lng":2.82135846153846},{"id":30956,"name":"Nanteuil-lès-Meaux","slug":"nanteuil-les-meaux","department_code":"77","zip_code":"77100","gps_lat":48.93077806451614,"gps_lng":2.90140935483871},{"id":30957,"name":"Nanteuil-sur-Marne","slug":"nanteuil-sur-marne","department_code":"77","zip_code":"77730","gps_lat":48.97944674999998,"gps_lng":3.22220125},{"id":30958,"name":"Nantouillet","slug":"nantouillet","department_code":"77","zip_code":"77230","gps_lat":48.99788707692308,"gps_lng":2.70230015384615},{"id":30959,"name":"Nemours","slug":"nemours","department_code":"77","zip_code":"77140","gps_lat":48.25878336842107,"gps_lng":2.71123063157895},{"id":30960,"name":"Chauconin-Neufmontiers","slug":"chauconin-neufmontiers","department_code":"77","zip_code":"77124","gps_lat":48.96940767857141,"gps_lng":2.8374675},{"id":30961,"name":"Neufmoutiers-en-Brie","slug":"neufmoutiers-en-brie","department_code":"77","zip_code":"77610","gps_lat":48.77387061946903,"gps_lng":2.82887601769911},{"id":30962,"name":"Noisiel","slug":"noisiel","department_code":"77","zip_code":"77186","gps_lat":48.84523557692308,"gps_lng":2.6176990384615397},{"id":30963,"name":"Noisy-Rudignon","slug":"noisy-rudignon","department_code":"77","zip_code":"77940","gps_lat":48.33505901639345,"gps_lng":2.93441508196721},{"id":30964,"name":"Noisy-sur-École","slug":"noisy-sur-ecole","department_code":"77","zip_code":"77123","gps_lat":48.37441489583333,"gps_lng":2.49830520833333},{"id":30965,"name":"Nonville","slug":"nonville","department_code":"77","zip_code":"77140","gps_lat":48.28839452054795,"gps_lng":2.78249561643836},{"id":30966,"name":"Noyen-sur-Seine","slug":"noyen-sur-seine","department_code":"77","zip_code":"77114","gps_lat":48.45316787878787,"gps_lng":3.34082460606061},{"id":30967,"name":"Obsonville","slug":"obsonville","department_code":"77","zip_code":"77890","gps_lat":48.21817722222222,"gps_lng":2.56778333333333},{"id":30968,"name":"Ocquerre","slug":"ocquerre","department_code":"77","zip_code":"77440","gps_lat":49.03606077922079,"gps_lng":3.05856292207792},{"id":30969,"name":"Oissery","slug":"oissery","department_code":"77","zip_code":"77178","gps_lat":49.06974125000001,"gps_lng":2.82135153846154},{"id":30970,"name":"Orly-sur-Morin","slug":"orly-sur-morin","department_code":"77","zip_code":"77750","gps_lat":48.90026242718447,"gps_lng":3.22873883495146},{"id":30971,"name":"Les Ormes-sur-Voulzie","slug":"les-ormes-sur-voulzie","department_code":"77","zip_code":"77134","gps_lat":48.45689343511451,"gps_lng":3.22140427480916},{"id":30972,"name":"Ormesson","slug":"ormesson","department_code":"77","zip_code":"77167","gps_lat":48.24570545454545,"gps_lng":2.64871324675325},{"id":30973,"name":"Othis","slug":"othis","department_code":"77","zip_code":"77280","gps_lat":49.08508262711865,"gps_lng":2.64851449152542},{"id":30974,"name":"Ozoir-la-Ferrière","slug":"ozoir-la-ferriere","department_code":"77","zip_code":"77330","gps_lat":48.7630230612245,"gps_lng":2.6682487755102002},{"id":30975,"name":"Ozouer-le-Voulgis","slug":"ozouer-le-voulgis","department_code":"77","zip_code":"77390","gps_lat":48.66184193277312,"gps_lng":2.77302016806723},{"id":30976,"name":"Paley","slug":"paley","department_code":"77","zip_code":"77710","gps_lat":48.2401124242424,"gps_lng":2.85474555555556},{"id":30977,"name":"Pamfou","slug":"pamfou","department_code":"77","zip_code":"77830","gps_lat":48.46623051020408,"gps_lng":2.85639010204082},{"id":30978,"name":"Paroy","slug":"paroy","department_code":"77","zip_code":"77520","gps_lat":48.47687504424778,"gps_lng":3.19903849557522},{"id":30979,"name":"Passy-sur-Seine","slug":"passy-sur-seine","department_code":"77","zip_code":"77480","gps_lat":48.42730275862068,"gps_lng":3.34098413793103},{"id":30980,"name":"Pécy","slug":"pecy","department_code":"77","zip_code":"77970","gps_lat":48.64896373983741,"gps_lng":3.05543016260163},{"id":30981,"name":"Penchard","slug":"penchard","department_code":"77","zip_code":"77124","gps_lat":48.992914999999996,"gps_lng":2.86099037037037},{"id":30982,"name":"Perthes","slug":"perthes","department_code":"77","zip_code":"77930","gps_lat":48.47972068493152,"gps_lng":2.5494102739726},{"id":30983,"name":"Pézarches","slug":"pezarches","department_code":"77","zip_code":"77131","gps_lat":48.74346142857142,"gps_lng":2.98886928571429},{"id":30984,"name":"Pierre-Levée","slug":"pierre-levee","department_code":"77","zip_code":"77580","gps_lat":48.89692227722771,"gps_lng":3.04120940594059},{"id":30985,"name":"Le Pin","slug":"le-pin","department_code":"77","zip_code":"77181","gps_lat":48.91663388888891,"gps_lng":2.6327911111111097},{"id":30986,"name":"Le Plessis-aux-Bois","slug":"le-plessis-aux-bois","department_code":"77","zip_code":"77165","gps_lat":49.00374649350648,"gps_lng":2.7667609090909098},{"id":30987,"name":"Le Plessis-Feu-Aussoux","slug":"le-plessis-feu-aussoux","department_code":"77","zip_code":"77540","gps_lat":48.71556101449276,"gps_lng":3.04058072463768},{"id":30988,"name":"Le Plessis-l'Évêque","slug":"le-plessis-l-eveque","department_code":"77","zip_code":"77165","gps_lat":49.00670140350879,"gps_lng":2.79298964912281},{"id":30989,"name":"Le Plessis-Placy","slug":"le-plessis-placy","department_code":"77","zip_code":"77440","gps_lat":49.05136989583335,"gps_lng":2.9820578125},{"id":30990,"name":"Poigny","slug":"poigny","department_code":"77","zip_code":"77160","gps_lat":48.54426355555556,"gps_lng":3.27866622222222},{"id":30991,"name":"Poincy","slug":"poincy","department_code":"77","zip_code":"77470","gps_lat":48.97465125000002,"gps_lng":2.92332625},{"id":30992,"name":"Poligny","slug":"poligny","department_code":"77","zip_code":"77167","gps_lat":48.23678394230767,"gps_lng":2.75187807692308},{"id":30993,"name":"Pommeuse","slug":"pommeuse","department_code":"77","zip_code":"77515","gps_lat":48.815414750000016,"gps_lng":3.00862475},{"id":30994,"name":"Pomponne","slug":"pomponne","department_code":"77","zip_code":"77400","gps_lat":48.88818958333334,"gps_lng":2.6741619444444398},{"id":30995,"name":"Pontault-Combault","slug":"pontault-combault","department_code":"77","zip_code":"77340","gps_lat":48.7854327131783,"gps_lng":2.61469480620155},{"id":30996,"name":"Pontcarré","slug":"pontcarre","department_code":"77","zip_code":"77135","gps_lat":48.79767619047619,"gps_lng":2.70413785714286},{"id":30997,"name":"Précy-sur-Marne","slug":"precy-sur-marne","department_code":"77","zip_code":"77410","gps_lat":48.93287107142857,"gps_lng":2.76913267857143},{"id":30998,"name":"Presles-en-Brie","slug":"presles-en-brie","department_code":"77","zip_code":"77220","gps_lat":48.71161104347825,"gps_lng":2.74386252173913},{"id":30999,"name":"Pringy","slug":"pringy","department_code":"77","zip_code":"77310","gps_lat":48.51786230769229,"gps_lng":2.55010230769231},{"id":31000,"name":"Provins","slug":"provins","department_code":"77","zip_code":"77160","gps_lat":48.56361138686132,"gps_lng":3.29356737226277},{"id":31001,"name":"Puisieux","slug":"puisieux","department_code":"77","zip_code":"77139","gps_lat":49.06264706766918,"gps_lng":2.91456},{"id":31002,"name":"Quiers","slug":"quiers","department_code":"77","zip_code":"77720","gps_lat":48.61342789473686,"gps_lng":2.95875622807018},{"id":31003,"name":"Quincy-Voisins","slug":"quincy-voisins","department_code":"77","zip_code":"77860","gps_lat":48.89690111111113,"gps_lng":2.87900212121212},{"id":31004,"name":"Rampillon","slug":"rampillon","department_code":"77","zip_code":"77370","gps_lat":48.53857055555554,"gps_lng":3.07163703703704},{"id":31005,"name":"Réau","slug":"reau","department_code":"77","zip_code":"77550","gps_lat":48.61166313953486,"gps_lng":2.62540406976744},{"id":31006,"name":"Rebais","slug":"rebais","department_code":"77","zip_code":"77510","gps_lat":48.85369614173226,"gps_lng":3.23411787401575},{"id":31007,"name":"Recloses","slug":"recloses","department_code":"77","zip_code":"77760","gps_lat":48.3399407142857,"gps_lng":2.64693242857143},{"id":31008,"name":"Remauville","slug":"remauville","department_code":"77","zip_code":"77710","gps_lat":48.22171921875002,"gps_lng":2.82900390625},{"id":31009,"name":"Reuil-en-Brie","slug":"reuil-en-brie","department_code":"77","zip_code":"77260","gps_lat":48.95382636363636,"gps_lng":3.16458420454546},{"id":31010,"name":"La Rochette","slug":"la-rochette","department_code":"77","zip_code":"77000","gps_lat":48.50441895522387,"gps_lng":2.66265791044776},{"id":31011,"name":"Roissy-en-Brie","slug":"roissy-en-brie","department_code":"77","zip_code":"77680","gps_lat":48.78960849462364,"gps_lng":2.6504535483871},{"id":31012,"name":"Rouilly","slug":"rouilly","department_code":"77","zip_code":"77160","gps_lat":48.58850424999999,"gps_lng":3.291478625},{"id":31013,"name":"Rouvres","slug":"rouvres","department_code":"77","zip_code":"77230","gps_lat":49.06591301587302,"gps_lng":2.72010873015873},{"id":31014,"name":"Rozay-en-Brie","slug":"rozay-en-brie","department_code":"77","zip_code":"77540","gps_lat":48.68328249999999,"gps_lng":2.96113861111111},{"id":31015,"name":"Rubelles","slug":"rubelles","department_code":"77","zip_code":"77950","gps_lat":48.56662781818181,"gps_lng":2.68061545454545},{"id":31016,"name":"Rumont","slug":"rumont","department_code":"77","zip_code":"77760","gps_lat":48.27023999999998,"gps_lng":2.49382088235294},{"id":31017,"name":"Rupéreux","slug":"rupereux","department_code":"77","zip_code":"77560","gps_lat":48.64218543859648,"gps_lng":3.32726122807018},{"id":31018,"name":"Saâcy-sur-Marne","slug":"saacy-sur-marne","department_code":"77","zip_code":"77730","gps_lat":48.95413555555555,"gps_lng":3.21150987654321},{"id":31019,"name":"Sablonnières","slug":"sablonnieres","department_code":"77","zip_code":"77510","gps_lat":48.88037097902097,"gps_lng":3.29342538461538},{"id":31020,"name":"Saint-Ange-le-Viel","slug":"saint-ange-le-viel","department_code":"77","zip_code":"77710","gps_lat":48.27331482142857,"gps_lng":2.90328035714286},{"id":31021,"name":"Saint-Augustin","slug":"saint-augustin","department_code":"77","zip_code":"77515","gps_lat":48.79090260273971,"gps_lng":3.02824465753425},{"id":31022,"name":"Sainte-Aulde","slug":"sainte-aulde","department_code":"77","zip_code":"77260","gps_lat":49.00213874999999,"gps_lng":3.17591785714286},{"id":31023,"name":"Saint-Barthélemy","slug":"saint-barthelemy","department_code":"77","zip_code":"77320","gps_lat":48.82004495049504,"gps_lng":3.36273079207921},{"id":31024,"name":"Saint-Brice","slug":"saint-brice","department_code":"77","zip_code":"77160","gps_lat":48.56421834862384,"gps_lng":3.33136605504587},{"id":31025,"name":"Sainte-Colombe","slug":"sainte-colombe","department_code":"77","zip_code":"77650","gps_lat":48.53472197802199,"gps_lng":3.25798758241758},{"id":31026,"name":"Saint-Cyr-sur-Morin","slug":"saint-cyr-sur-morin","department_code":"77","zip_code":"77750","gps_lat":48.91191952095807,"gps_lng":3.17094532934132},{"id":31027,"name":"Saint-Denis-lès-Rebais","slug":"saint-denis-les-rebais","department_code":"77","zip_code":"77510","gps_lat":48.84272274193548,"gps_lng":3.20003524193548},{"id":31028,"name":"Saint-Fargeau-Ponthierry","slug":"saint-fargeau-ponthierry","department_code":"77","zip_code":"77310","gps_lat":48.5361418382353,"gps_lng":2.52215125},{"id":31029,"name":"Saint-Fiacre","slug":"saint-fiacre","department_code":"77","zip_code":"77470","gps_lat":48.92462999999999,"gps_lng":2.95106838709677},{"id":31030,"name":"Saint-Germain-Laval","slug":"saint-germain-laval","department_code":"77","zip_code":"77130","gps_lat":48.40990827160493,"gps_lng":3.00270604938272},{"id":31031,"name":"Saint-Germain-Laxis","slug":"saint-germain-laxis","department_code":"77","zip_code":"77950","gps_lat":48.58886080000002,"gps_lng":2.70576653333333},{"id":31032,"name":"Saint-Germain-sous-Doue","slug":"saint-germain-sous-doue","department_code":"77","zip_code":"77169","gps_lat":48.85305585185185,"gps_lng":3.13032725925926},{"id":31033,"name":"Saint-Germain-sur-École","slug":"saint-germain-sur-ecole","department_code":"77","zip_code":"77930","gps_lat":48.47233916666668,"gps_lng":2.51171145833333},{"id":31034,"name":"Saint-Germain-sur-Morin","slug":"saint-germain-sur-morin","department_code":"77","zip_code":"77860","gps_lat":48.87678797979797,"gps_lng":2.8378},{"id":31035,"name":"Saint-Hilliers","slug":"saint-hilliers","department_code":"77","zip_code":"77160","gps_lat":48.6347970967742,"gps_lng":3.26098505376344},{"id":31036,"name":"Saint-Jean-les-Deux-Jumeaux","slug":"saint-jean-les-deux-jumeaux","department_code":"77","zip_code":"77660","gps_lat":48.94268999999998,"gps_lng":3.02330681818182},{"id":31037,"name":"Saint-Just-en-Brie","slug":"saint-just-en-brie","department_code":"77","zip_code":"77370","gps_lat":48.6028430952381,"gps_lng":3.12688047619048},{"id":31038,"name":"Saint-Léger","slug":"saint-leger","department_code":"77","zip_code":"77510","gps_lat":48.84249975903614,"gps_lng":3.26759795180723},{"id":31039,"name":"Saint-Loup-de-Naud","slug":"saint-loup-de-naud","department_code":"77","zip_code":"77650","gps_lat":48.53607489795917,"gps_lng":3.22131122448979},{"id":31040,"name":"Saint-Mammès","slug":"saint-mammes","department_code":"77","zip_code":"77670","gps_lat":48.3855778125,"gps_lng":2.8232590625},{"id":31041,"name":"Saint-Mard","slug":"saint-mard","department_code":"77","zip_code":"77230","gps_lat":49.04144516666666,"gps_lng":2.69973233333333},{"id":31042,"name":"Saint-Mars-Vieux-Maisons","slug":"saint-mars-vieux-maisons","department_code":"77","zip_code":"77320","gps_lat":48.73907379629629,"gps_lng":3.31857138888889},{"id":31043,"name":"Saint-Martin-des-Champs","slug":"saint-martin-des-champs","department_code":"77","zip_code":"77320","gps_lat":48.78368609271525,"gps_lng":3.32688483443709},{"id":31044,"name":"Saint-Martin-du-Boschet","slug":"saint-martin-du-boschet","department_code":"77","zip_code":"77320","gps_lat":48.73745278350513,"gps_lng":3.42615773195876},{"id":31045,"name":"Saint-Martin-en-Bière","slug":"saint-martin-en-biere","department_code":"77","zip_code":"77630","gps_lat":48.43716032258065,"gps_lng":2.57024258064516},{"id":31046,"name":"Saint-Méry","slug":"saint-mery","department_code":"77","zip_code":"77720","gps_lat":48.56929257575757,"gps_lng":2.83740439393939},{"id":31047,"name":"Saint-Mesmes","slug":"saint-mesmes","department_code":"77","zip_code":"77410","gps_lat":48.98614929292931,"gps_lng":2.6998337373737398},{"id":31048,"name":"Saint-Ouen-en-Brie","slug":"saint-ouen-en-brie","department_code":"77","zip_code":"77720","gps_lat":48.56577438356165,"gps_lng":2.9224601369863},{"id":31049,"name":"Saint-Ouen-sur-Morin","slug":"saint-ouen-sur-morin","department_code":"77","zip_code":"77750","gps_lat":48.90422374999999,"gps_lng":3.20432925},{"id":31050,"name":"Saint-Pathus","slug":"saint-pathus","department_code":"77","zip_code":"77178","gps_lat":49.07425738461537,"gps_lng":2.78460138461539},{"id":31051,"name":"Saint-Pierre-lès-Nemours","slug":"saint-pierre-les-nemours","department_code":"77","zip_code":"77140","gps_lat":48.260372147651,"gps_lng":2.66557275167785},{"id":31052,"name":"Saint-Rémy-la-Vanne","slug":"saint-remy-la-vanne","department_code":"77","zip_code":"77320","gps_lat":48.81194893939392,"gps_lng":3.24180946969697},{"id":31053,"name":"Saints","slug":"saints","department_code":"77","zip_code":"77120","gps_lat":48.75758914893618,"gps_lng":3.06125737588653},{"id":31054,"name":"Saint-Sauveur-lès-Bray","slug":"saint-sauveur-les-bray","department_code":"77","zip_code":"77480","gps_lat":48.43768992753624,"gps_lng":3.20505739130435},{"id":31055,"name":"Saint-Sauveur-sur-École","slug":"saint-sauveur-sur-ecole","department_code":"77","zip_code":"77930","gps_lat":48.50185711864406,"gps_lng":2.53328084745763},{"id":31056,"name":"Saint-Siméon","slug":"saint-simeon","department_code":"77","zip_code":"77169","gps_lat":48.81123081481483,"gps_lng":3.19884614814815},{"id":31057,"name":"Saint-Soupplets","slug":"saint-soupplets","department_code":"77","zip_code":"77165","gps_lat":49.03594840000002,"gps_lng":2.8013044000000002},{"id":31058,"name":"Saint-Thibault-des-Vignes","slug":"saint-thibault-des-vignes","department_code":"77","zip_code":"77400","gps_lat":48.86190357142859,"gps_lng":2.67765714285714},{"id":31059,"name":"Salins","slug":"salins","department_code":"77","zip_code":"77148","gps_lat":48.42150527027027,"gps_lng":3.02773608108108},{"id":31060,"name":"Sammeron","slug":"sammeron","department_code":"77","zip_code":"77260","gps_lat":48.93833224999999,"gps_lng":3.07797725},{"id":31061,"name":"Samois-sur-Seine","slug":"samois-sur-seine","department_code":"77","zip_code":"77920","gps_lat":48.4534955319149,"gps_lng":2.7504564893617},{"id":31062,"name":"Samoreau","slug":"samoreau","department_code":"77","zip_code":"77210","gps_lat":48.42064177419355,"gps_lng":2.77846758064516},{"id":31063,"name":"Sancy","slug":"sancy","department_code":"77","zip_code":"77580","gps_lat":48.883836842105254,"gps_lng":2.96107736842105},{"id":31064,"name":"Sancy-lès-Provins","slug":"sancy-les-provins","department_code":"77","zip_code":"77320","gps_lat":48.71036659793813,"gps_lng":3.39408628865979},{"id":31065,"name":"Savigny-le-Temple","slug":"savigny-le-temple","department_code":"77","zip_code":"77176","gps_lat":48.58078728260871,"gps_lng":2.5728197826087},{"id":31066,"name":"Savins","slug":"savins","department_code":"77","zip_code":"77650","gps_lat":48.50850239130434,"gps_lng":3.20766076086956},{"id":31067,"name":"Seine-Port","slug":"seine-port","department_code":"77","zip_code":"77240","gps_lat":48.55464239130437,"gps_lng":2.55574434782609},{"id":31068,"name":"Sept-Sorts","slug":"sept-sorts","department_code":"77","zip_code":"77260","gps_lat":48.93935190476191,"gps_lng":3.10665952380952},{"id":31069,"name":"Serris","slug":"serris","department_code":"77","zip_code":"77700","gps_lat":48.84639160714284,"gps_lng":2.78746696428572},{"id":31070,"name":"Servon","slug":"servon","department_code":"77","zip_code":"77170","gps_lat":48.71573539325845,"gps_lng":2.59109797752809},{"id":31071,"name":"Signy-Signets","slug":"signy-signets","department_code":"77","zip_code":"77640","gps_lat":48.91599864406779,"gps_lng":3.06418830508475},{"id":31072,"name":"Sigy","slug":"sigy","department_code":"77","zip_code":"77520","gps_lat":48.47464126582277,"gps_lng":3.16822},{"id":31073,"name":"Sivry-Courtry","slug":"sivry-courtry","department_code":"77","zip_code":"77115","gps_lat":48.53363020270267,"gps_lng":2.76203527027027},{"id":31074,"name":"Sognolles-en-Montois","slug":"sognolles-en-montois","department_code":"77","zip_code":"77520","gps_lat":48.51845694444447,"gps_lng":3.15173037037037},{"id":31075,"name":"Soignolles-en-Brie","slug":"soignolles-en-brie","department_code":"77","zip_code":"77111","gps_lat":48.64623486111114,"gps_lng":2.70774333333333},{"id":31076,"name":"Soisy-Bouy","slug":"soisy-bouy","department_code":"77","zip_code":"77650","gps_lat":48.51081296703295,"gps_lng":3.29849076923077},{"id":31077,"name":"Solers","slug":"solers","department_code":"77","zip_code":"77111","gps_lat":48.6572464864865,"gps_lng":2.7255874774774798},{"id":31078,"name":"Souppes-sur-Loing","slug":"souppes-sur-loing","department_code":"77","zip_code":"77460","gps_lat":48.18540085470085,"gps_lng":2.7441070940170897},{"id":31079,"name":"Sourdun","slug":"sourdun","department_code":"77","zip_code":"77171","gps_lat":48.54376486486486,"gps_lng":3.3532488288288302},{"id":31080,"name":"Tancrou","slug":"tancrou","department_code":"77","zip_code":"77440","gps_lat":49.00471385416665,"gps_lng":3.07862177083333},{"id":31081,"name":"Thénisy","slug":"thenisy","department_code":"77","zip_code":"77520","gps_lat":48.48964163265304,"gps_lng":3.17843867346939},{"id":31082,"name":"Thieux","slug":"thieux","department_code":"77","zip_code":"77230","gps_lat":49.00079873563218,"gps_lng":2.67002413793103},{"id":31083,"name":"Thomery","slug":"thomery","department_code":"77","zip_code":"77810","gps_lat":48.40541735849057,"gps_lng":2.77662188679245},{"id":31084,"name":"Thorigny-sur-Marne","slug":"thorigny-sur-marne","department_code":"77","zip_code":"77400","gps_lat":48.89471731343284,"gps_lng":2.71173417910448},{"id":31085,"name":"Thoury-Férottes","slug":"thoury-ferottes","department_code":"77","zip_code":"77940","gps_lat":48.30327969696972,"gps_lng":2.94043704545455},{"id":31086,"name":"Tigeaux","slug":"tigeaux","department_code":"77","zip_code":"77163","gps_lat":48.82746180555555,"gps_lng":2.89912236111111},{"id":31087,"name":"La Tombe","slug":"la-tombe","department_code":"77","zip_code":"77130","gps_lat":48.38823170731708,"gps_lng":3.09074853658537},{"id":31088,"name":"Torcy","slug":"torcy","department_code":"77","zip_code":"77200","gps_lat":48.84904906666665,"gps_lng":2.65315133333333},{"id":31089,"name":"Touquin","slug":"touquin","department_code":"77","zip_code":"77131","gps_lat":48.72914836363636,"gps_lng":3.02973554545455},{"id":31090,"name":"Tournan-en-Brie","slug":"tournan-en-brie","department_code":"77","zip_code":"77220","gps_lat":48.74253229357797,"gps_lng":2.77325917431193},{"id":31091,"name":"Tousson","slug":"tousson","department_code":"77","zip_code":"77123","gps_lat":48.34596559523811,"gps_lng":2.45691035714286},{"id":31092,"name":"La Trétoire","slug":"la-tretoire","department_code":"77","zip_code":"77510","gps_lat":48.88200686567165,"gps_lng":3.24758649253731},{"id":31093,"name":"Treuzy-Levelay","slug":"treuzy-levelay","department_code":"77","zip_code":"77710","gps_lat":48.27316242187501,"gps_lng":2.79734609375},{"id":31094,"name":"Trilbardou","slug":"trilbardou","department_code":"77","zip_code":"77450","gps_lat":48.94706210526314,"gps_lng":2.7955353947368398},{"id":31095,"name":"Trilport","slug":"trilport","department_code":"77","zip_code":"77470","gps_lat":48.95054513888889,"gps_lng":2.96530930555556},{"id":31096,"name":"Trocy-en-Multien","slug":"trocy-en-multien","department_code":"77","zip_code":"77440","gps_lat":49.04046415730337,"gps_lng":2.96506426966292},{"id":31097,"name":"Ury","slug":"ury","department_code":"77","zip_code":"77760","gps_lat":48.34303661290321,"gps_lng":2.59842370967742},{"id":31098,"name":"Ussy-sur-Marne","slug":"ussy-sur-marne","department_code":"77","zip_code":"77260","gps_lat":48.96906436974791,"gps_lng":3.08544117647059},{"id":31099,"name":"Vaires-sur-Marne","slug":"vaires-sur-marne","department_code":"77","zip_code":"77360","gps_lat":48.86927622950817,"gps_lng":2.63094967213115},{"id":31100,"name":"Valence-en-Brie","slug":"valence-en-brie","department_code":"77","zip_code":"77830","gps_lat":48.44680156862744,"gps_lng":2.89195676470588},{"id":31101,"name":"Vanvillé","slug":"vanville","department_code":"77","zip_code":"77370","gps_lat":48.5560095522388,"gps_lng":3.10997552238806},{"id":31102,"name":"Varennes-sur-Seine","slug":"varennes-sur-seine","department_code":"77","zip_code":"77130","gps_lat":48.370141954022984,"gps_lng":2.93841321839081},{"id":31103,"name":"Varreddes","slug":"varreddes","department_code":"77","zip_code":"77910","gps_lat":49.00494339622644,"gps_lng":2.92773622641509},{"id":31104,"name":"Vaucourtois","slug":"vaucourtois","department_code":"77","zip_code":"77580","gps_lat":48.89876574468083,"gps_lng":2.95480361702128},{"id":31105,"name":"Le Vaudoué","slug":"le-vaudoue","department_code":"77","zip_code":"77123","gps_lat":48.34462580246914,"gps_lng":2.5208559259259298},{"id":31106,"name":"Vaudoy-en-Brie","slug":"vaudoy-en-brie","department_code":"77","zip_code":"77141","gps_lat":48.69848984615385,"gps_lng":3.07974661538461},{"id":31107,"name":"Vaux-le-Pénil","slug":"vaux-le-penil","department_code":"77","zip_code":"77000","gps_lat":48.51978528846156,"gps_lng":2.70130596153846},{"id":31108,"name":"Vaux-sur-Lunain","slug":"vaux-sur-lunain","department_code":"77","zip_code":"77710","gps_lat":48.21621364341086,"gps_lng":2.95883085271318},{"id":31109,"name":"Vendrest","slug":"vendrest","department_code":"77","zip_code":"77440","gps_lat":49.04124763636366,"gps_lng":3.11005354545454},{"id":31110,"name":"Verdelot","slug":"verdelot","department_code":"77","zip_code":"77510","gps_lat":48.88077619469025,"gps_lng":3.36847517699115},{"id":31111,"name":"Verneuil-l'Étang","slug":"verneuil-l-etang","department_code":"77","zip_code":"77390","gps_lat":48.63685435897438,"gps_lng":2.8223489743589703},{"id":31112,"name":"Vernou-la-Celle-sur-Seine","slug":"vernou-la-celle-sur-seine","department_code":"77","zip_code":"77670","gps_lat":48.40303247706424,"gps_lng":2.86269550458716},{"id":31113,"name":"Vert-Saint-Denis","slug":"vert-saint-denis","department_code":"77","zip_code":"77240","gps_lat":48.56568892473117,"gps_lng":2.62781440860215},{"id":31114,"name":"Vieux-Champagne","slug":"vieux-champagne","department_code":"77","zip_code":"77370","gps_lat":48.58688864197532,"gps_lng":3.13575432098765},{"id":31115,"name":"Vignely","slug":"vignely","department_code":"77","zip_code":"77450","gps_lat":48.93266793103449,"gps_lng":2.81321172413793},{"id":31116,"name":"Villebéon","slug":"villebeon","department_code":"77","zip_code":"77710","gps_lat":48.2049134951456,"gps_lng":2.92770757281553},{"id":31117,"name":"Villecerf","slug":"villecerf","department_code":"77","zip_code":"77250","gps_lat":48.32730294117648,"gps_lng":2.85564784313726},{"id":31118,"name":"Villemaréchal","slug":"villemarechal","department_code":"77","zip_code":"77710","gps_lat":48.27168523437498,"gps_lng":2.866432734375},{"id":31119,"name":"Villemareuil","slug":"villemareuil","department_code":"77","zip_code":"77470","gps_lat":48.92431806451614,"gps_lng":2.97668209677419},{"id":31120,"name":"Villemer","slug":"villemer","department_code":"77","zip_code":"77250","gps_lat":48.30510986577181,"gps_lng":2.81272543624161},{"id":31121,"name":"Villenauxe-la-Petite","slug":"villenauxe-la-petite","department_code":"77","zip_code":"77480","gps_lat":48.39860033112581,"gps_lng":3.30737728476821},{"id":31122,"name":"Villeneuve-le-Comte","slug":"villeneuve-le-comte","department_code":"77","zip_code":"77174","gps_lat":48.81450833333334,"gps_lng":2.82881523809524},{"id":31123,"name":"Villeneuve-les-Bordes","slug":"villeneuve-les-bordes","department_code":"77","zip_code":"77154","gps_lat":48.50216427184466,"gps_lng":3.0306527184466},{"id":31124,"name":"Villeneuve-Saint-Denis","slug":"villeneuve-saint-denis","department_code":"77","zip_code":"77174","gps_lat":48.8128956060606,"gps_lng":2.79745863636364},{"id":31125,"name":"Villeneuve-sous-Dammartin","slug":"villeneuve-sous-dammartin","department_code":"77","zip_code":"77230","gps_lat":49.02833507692308,"gps_lng":2.63111123076923},{"id":31126,"name":"Villeneuve-sur-Bellot","slug":"villeneuve-sur-bellot","department_code":"77","zip_code":"77510","gps_lat":48.87527761538463,"gps_lng":3.33212007692308},{"id":31127,"name":"Villenoy","slug":"villenoy","department_code":"77","zip_code":"77124","gps_lat":48.94683162790697,"gps_lng":2.85560534883721},{"id":31128,"name":"Villeparisis","slug":"villeparisis","department_code":"77","zip_code":"77270","gps_lat":48.93713088235296,"gps_lng":2.61954970588235},{"id":31129,"name":"Villeroy","slug":"villeroy","department_code":"77","zip_code":"77410","gps_lat":48.98763310344827,"gps_lng":2.77414706896552},{"id":31130,"name":"Ville-Saint-Jacques","slug":"ville-saint-jacques","department_code":"77","zip_code":"77130","gps_lat":48.34472529411764,"gps_lng":2.89986264705882},{"id":31131,"name":"Villevaudé","slug":"villevaude","department_code":"77","zip_code":"77410","gps_lat":48.91419776859507,"gps_lng":2.66206867768595},{"id":31132,"name":"Villiers-en-Bière","slug":"villiers-en-biere","department_code":"77","zip_code":"77190","gps_lat":48.49197310344827,"gps_lng":2.59759586206897},{"id":31133,"name":"Villiers-Saint-Georges","slug":"villiers-saint-georges","department_code":"77","zip_code":"77560","gps_lat":48.65151710526315,"gps_lng":3.4167022368421},{"id":31134,"name":"Villiers-sous-Grez","slug":"villiers-sous-grez","department_code":"77","zip_code":"77760","gps_lat":48.31558218181819,"gps_lng":2.6316161818181802},{"id":31135,"name":"Villiers-sur-Morin","slug":"villiers-sur-morin","department_code":"77","zip_code":"77580","gps_lat":48.85271967741937,"gps_lng":2.87026559139785},{"id":31136,"name":"Villiers-sur-Seine","slug":"villiers-sur-seine","department_code":"77","zip_code":"77114","gps_lat":48.45929304568529,"gps_lng":3.38317233502538},{"id":31137,"name":"Villuis","slug":"villuis","department_code":"77","zip_code":"77480","gps_lat":48.39795632653061,"gps_lng":3.35798244897959},{"id":31138,"name":"Vimpelles","slug":"vimpelles","department_code":"77","zip_code":"77520","gps_lat":48.43941444444442,"gps_lng":3.16866673611111},{"id":31139,"name":"Vinantes","slug":"vinantes","department_code":"77","zip_code":"77230","gps_lat":49.00330250000001,"gps_lng":2.7419254166666702},{"id":31140,"name":"Vincy-Manœuvre","slug":"vincy-manoeuvre","department_code":"77","zip_code":"77139","gps_lat":49.07763530120484,"gps_lng":2.95484626506024},{"id":31141,"name":"Voinsles","slug":"voinsles","department_code":"77","zip_code":"77540","gps_lat":48.68329425925927,"gps_lng":3.01437268518519},{"id":31142,"name":"Voisenon","slug":"voisenon","department_code":"77","zip_code":"77950","gps_lat":48.56952441860464,"gps_lng":2.6627260465116303},{"id":31143,"name":"Voulangis","slug":"voulangis","department_code":"77","zip_code":"77580","gps_lat":48.84410512820516,"gps_lng":2.8954158974359},{"id":31144,"name":"Voulton","slug":"voulton","department_code":"77","zip_code":"77560","gps_lat":48.6165729090909,"gps_lng":3.33344927272727},{"id":31145,"name":"Voulx","slug":"voulx","department_code":"77","zip_code":"77940","gps_lat":48.28310504000001,"gps_lng":2.97139592},{"id":31146,"name":"Vulaines-lès-Provins","slug":"vulaines-les-provins","department_code":"77","zip_code":"77160","gps_lat":48.56029728260872,"gps_lng":3.21555836956522},{"id":31147,"name":"Vulaines-sur-Seine","slug":"vulaines-sur-seine","department_code":"77","zip_code":"77870","gps_lat":48.42947446153847,"gps_lng":2.77787907692308},{"id":31148,"name":"Yèbles","slug":"yebles","department_code":"77","zip_code":"77390","gps_lat":48.63949653846155,"gps_lng":2.76778192307692}]},"city":{"id":30683,"name":"Boulancourt","slug":"boulancourt","department_code":"77","zip_code":"77760","gps_lat":48.25882916666667,"gps_lng":2.44545066666667},"SITE_NAME":"DSTR 3D"},"__N_SSG":true}