{"pageProps":{"service":{"id":6,"name":"Dépigeonage","description":"On trouve les insectes, on les retire et vous retrouvez votre vie normale","slug":"depigeonage"},"department":{"name":"Val-d'Oise","slug":"val-doise","region_code":"11","code":"95","cities":[{"id":35422,"name":"Ableiges","slug":"ableiges","department_code":"95","zip_code":"95450","gps_lat":49.08820796116506,"gps_lng":1.97821854368932},{"id":35423,"name":"Aincourt","slug":"aincourt","department_code":"95","zip_code":"95510","gps_lat":49.07153802469138,"gps_lng":1.7721606172839501},{"id":35424,"name":"Ambleville","slug":"ambleville","department_code":"95","zip_code":"95420","gps_lat":49.150717,"gps_lng":1.697436},{"id":35426,"name":"Amenucourt","slug":"amenucourt","department_code":"95","zip_code":"95510","gps_lat":49.10478404255319,"gps_lng":1.63849276595745},{"id":35427,"name":"Andilly","slug":"andilly","department_code":"95","zip_code":"95580","gps_lat":49.00981661538462,"gps_lng":2.30181461538462},{"id":35428,"name":"Argenteuil","slug":"argenteuil","department_code":"95","zip_code":"95100","gps_lat":48.95465646464645,"gps_lng":2.2433797979798},{"id":35429,"name":"Arnouville","slug":"arnouville","department_code":"95","zip_code":"95400","gps_lat":48.98569372881357,"gps_lng":2.41569694915254},{"id":35430,"name":"Arronville","slug":"arronville","department_code":"95","zip_code":"95810","gps_lat":49.17632557522122,"gps_lng":2.11747362831858},{"id":35431,"name":"Arthies","slug":"arthies","department_code":"95","zip_code":"95420","gps_lat":49.0901714516129,"gps_lng":1.7989875806451598},{"id":35432,"name":"Asnières-sur-Oise","slug":"asnieres-sur-oise","department_code":"95","zip_code":"95270","gps_lat":49.14326164062503,"gps_lng":2.38108609375},{"id":35433,"name":"Attainville","slug":"attainville","department_code":"95","zip_code":"95570","gps_lat":49.06214466666667,"gps_lng":2.34589066666667},{"id":35434,"name":"Auvers-sur-Oise","slug":"auvers-sur-oise","department_code":"95","zip_code":"95430","gps_lat":49.08044467391304,"gps_lng":2.14982347826087},{"id":35435,"name":"Avernes","slug":"avernes","department_code":"95","zip_code":"95450","gps_lat":49.08904718749999,"gps_lng":1.86405375},{"id":35436,"name":"Baillet-en-France","slug":"baillet-en-france","department_code":"95","zip_code":"95560","gps_lat":49.05905097560975,"gps_lng":2.29725292682927},{"id":35437,"name":"Banthelu","slug":"banthelu","department_code":"95","zip_code":"95420","gps_lat":49.1284252112676,"gps_lng":1.81576281690141},{"id":35438,"name":"Beauchamp","slug":"beauchamp","department_code":"95","zip_code":"95250","gps_lat":49.01519947368422,"gps_lng":2.19482842105263},{"id":35439,"name":"Beaumont-sur-Oise","slug":"beaumont-sur-oise","department_code":"95","zip_code":"95260","gps_lat":49.13973205128207,"gps_lng":2.298415},{"id":35440,"name":"Le Bellay-en-Vexin","slug":"le-bellay-en-vexin","department_code":"95","zip_code":"95750","gps_lat":49.15075298245614,"gps_lng":1.88157298245614},{"id":35441,"name":"Bellefontaine","slug":"bellefontaine","department_code":"95","zip_code":"95270","gps_lat":49.09250261682241,"gps_lng":2.46769579439252},{"id":35442,"name":"Belloy-en-France","slug":"belloy-en-france","department_code":"95","zip_code":"95270","gps_lat":49.09204896551724,"gps_lng":2.367465},{"id":35443,"name":"Bernes-sur-Oise","slug":"bernes-sur-oise","department_code":"95","zip_code":"95340","gps_lat":49.16847052631577,"gps_lng":2.30079859649123},{"id":35444,"name":"Berville","slug":"berville","department_code":"95","zip_code":"95810","gps_lat":49.1944005263158,"gps_lng":2.07028934210526},{"id":35445,"name":"Bessancourt","slug":"bessancourt","department_code":"95","zip_code":"95550","gps_lat":49.04060627118643,"gps_lng":2.20444966101695},{"id":35446,"name":"Béthemont-la-Forêt","slug":"bethemont-la-foret","department_code":"95","zip_code":"95840","gps_lat":49.05815137931035,"gps_lng":2.24960086206897},{"id":35447,"name":"Bezons","slug":"bezons","department_code":"95","zip_code":"95870","gps_lat":48.93060576923078,"gps_lng":2.20877615384615},{"id":35448,"name":"Boisemont","slug":"boisemont","department_code":"95","zip_code":"95000","gps_lat":49.01880962962963,"gps_lng":2.0047037037037},{"id":35449,"name":"Boissy-l'Aillerie","slug":"boissy-l-aillerie","department_code":"95","zip_code":"95650","gps_lat":49.08100233333335,"gps_lng":2.03076033333333},{"id":35450,"name":"Bonneuil-en-France","slug":"bonneuil-en-france","department_code":"95","zip_code":"95500","gps_lat":48.96476151898735,"gps_lng":2.43140113924051},{"id":35451,"name":"Bouffémont","slug":"bouffemont","department_code":"95","zip_code":"95570","gps_lat":49.04182057692307,"gps_lng":2.29859269230769},{"id":35452,"name":"Bouqueval","slug":"bouqueval","department_code":"95","zip_code":"95720","gps_lat":49.02195098039216,"gps_lng":2.42666666666667},{"id":35453,"name":"Bray-et-Lû","slug":"bray-et-lu","department_code":"95","zip_code":"95710","gps_lat":49.14250318681319,"gps_lng":1.66462395604396},{"id":35454,"name":"Bréançon","slug":"breancon","department_code":"95","zip_code":"95640","gps_lat":49.15153387096774,"gps_lng":2.02447731182796},{"id":35455,"name":"Brignancourt","slug":"brignancourt","department_code":"95","zip_code":"95640","gps_lat":49.14031262295082,"gps_lng":1.94244245901639},{"id":35456,"name":"Bruyères-sur-Oise","slug":"bruyeres-sur-oise","department_code":"95","zip_code":"95820","gps_lat":49.16287082191781,"gps_lng":2.32870260273973},{"id":35457,"name":"Buhy","slug":"buhy","department_code":"95","zip_code":"95770","gps_lat":49.19013239130433,"gps_lng":1.70626586956522},{"id":35458,"name":"Butry-sur-Oise","slug":"butry-sur-oise","department_code":"95","zip_code":"95430","gps_lat":49.08484682926829,"gps_lng":2.19002170731707},{"id":35459,"name":"Cergy","slug":"cergy","department_code":"95","zip_code":"95000","gps_lat":49.0331671,"gps_lng":2.0547222},{"id":35461,"name":"Champagne-sur-Oise","slug":"champagne-sur-oise","department_code":"95","zip_code":"95660","gps_lat":49.14195443181818,"gps_lng":2.22480125},{"id":35462,"name":"La Chapelle-en-Vexin","slug":"la-chapelle-en-vexin","department_code":"95","zip_code":"95420","gps_lat":49.18450599999999,"gps_lng":1.724134},{"id":35463,"name":"Charmont","slug":"charmont","department_code":"95","zip_code":"95420","gps_lat":49.13696213483146,"gps_lng":1.78629404494382},{"id":35464,"name":"Chars","slug":"chars","department_code":"95","zip_code":"95750","gps_lat":49.15790000000001,"gps_lng":1.93178507352941},{"id":35465,"name":"Châtenay-en-France","slug":"chatenay-en-france","department_code":"95","zip_code":"95190","gps_lat":49.06705557692308,"gps_lng":2.45854538461538},{"id":35466,"name":"Chaumontel","slug":"chaumontel","department_code":"95","zip_code":"95270","gps_lat":49.12701545454546,"gps_lng":2.4326448051948},{"id":35467,"name":"Chaussy","slug":"chaussy","department_code":"95","zip_code":"95710","gps_lat":49.1146522077922,"gps_lng":1.6980792207792201},{"id":35468,"name":"Chauvry","slug":"chauvry","department_code":"95","zip_code":"95560","gps_lat":49.0588861111111,"gps_lng":2.26912375},{"id":35469,"name":"Chennevières-lès-Louvres","slug":"chennevieres-les-louvres","department_code":"95","zip_code":"95380","gps_lat":49.04205108333331,"gps_lng":2.5482185},{"id":35470,"name":"Chérence","slug":"cherence","department_code":"95","zip_code":"95510","gps_lat":49.09009731343284,"gps_lng":1.68568313432836},{"id":35471,"name":"Cléry-en-Vexin","slug":"clery-en-vexin","department_code":"95","zip_code":"95420","gps_lat":49.13013826923078,"gps_lng":1.8438821153846199},{"id":35472,"name":"Commeny","slug":"commeny","department_code":"95","zip_code":"95450","gps_lat":49.1289894366197,"gps_lng":1.8902238028168998},{"id":35473,"name":"Condécourt","slug":"condecourt","department_code":"95","zip_code":"95450","gps_lat":49.03787859154928,"gps_lng":1.93904098591549},{"id":35474,"name":"Cormeilles-en-Parisis","slug":"cormeilles-en-parisis","department_code":"95","zip_code":"95240","gps_lat":48.9719125225225,"gps_lng":2.20147756756757},{"id":35475,"name":"Cormeilles-en-Vexin","slug":"cormeilles-en-vexin","department_code":"95","zip_code":"95830","gps_lat":49.11261931818182,"gps_lng":2.01605806818182},{"id":35476,"name":"Courcelles-sur-Viosne","slug":"courcelles-sur-viosne","department_code":"95","zip_code":"95650","gps_lat":49.07500826923076,"gps_lng":2.00219403846154},{"id":35477,"name":"Courdimanche","slug":"courdimanche","department_code":"95","zip_code":"95800","gps_lat":49.03937147540985,"gps_lng":1.99825459016393},{"id":35478,"name":"Deuil-la-Barre","slug":"deuil-la-barre","department_code":"95","zip_code":"95170","gps_lat":48.9723359375,"gps_lng":2.32881765625},{"id":35479,"name":"Domont","slug":"domont","department_code":"95","zip_code":"95330","gps_lat":49.02871625,"gps_lng":2.32402739583333},{"id":35480,"name":"Eaubonne","slug":"eaubonne","department_code":"95","zip_code":"95600","gps_lat":48.99077588235294,"gps_lng":2.27815338235294},{"id":35481,"name":"Écouen","slug":"ecouen","department_code":"95","zip_code":"95440","gps_lat":49.02253925373134,"gps_lng":2.38073104477612},{"id":35482,"name":"Enghien-les-Bains","slug":"enghien-les-bains","department_code":"95","zip_code":"95880","gps_lat":48.96999702702703,"gps_lng":2.30270351351351},{"id":35483,"name":"Ennery","slug":"ennery","department_code":"95","zip_code":"95300","gps_lat":49.07321057471265,"gps_lng":2.10832597701149},{"id":35484,"name":"Épiais-lès-Louvres","slug":"epiais-les-louvres","department_code":"95","zip_code":"95380","gps_lat":49.03266831325301,"gps_lng":2.54988},{"id":35485,"name":"Épiais-Rhus","slug":"epiais-rhus","department_code":"95","zip_code":"95810","gps_lat":49.12847237037036,"gps_lng":2.0743042962963},{"id":35486,"name":"Épinay-Champlâtreux","slug":"epinay-champlatreux","department_code":"95","zip_code":"95270","gps_lat":49.09099160000002,"gps_lng":2.4089874},{"id":35487,"name":"Éragny","slug":"eragny","department_code":"95","zip_code":"95610","gps_lat":49.02149823529412,"gps_lng":2.09999529411765},{"id":35488,"name":"Ermont","slug":"ermont","department_code":"95","zip_code":"95120","gps_lat":48.98723271186442,"gps_lng":2.25881338983051},{"id":35489,"name":"Ézanville","slug":"ezanville","department_code":"95","zip_code":"95460","gps_lat":49.03582729166667,"gps_lng":2.36235520833333},{"id":35490,"name":"Fontenay-en-Parisis","slug":"fontenay-en-parisis","department_code":"95","zip_code":"95190","gps_lat":49.04739280898877,"gps_lng":2.45446213483146},{"id":35491,"name":"Fosses","slug":"fosses","department_code":"95","zip_code":"95470","gps_lat":49.09863789473684,"gps_lng":2.49787157894737},{"id":35492,"name":"Franconville","slug":"franconville","department_code":"95","zip_code":"95130","gps_lat":48.98359014084506,"gps_lng":2.22323112676056},{"id":35493,"name":"Frémainville","slug":"fremainville","department_code":"95","zip_code":"95450","gps_lat":49.06493582278481,"gps_lng":1.8670532911392401},{"id":35494,"name":"Frémécourt","slug":"fremecourt","department_code":"95","zip_code":"95830","gps_lat":49.121964375,"gps_lng":1.9945468750000002},{"id":35495,"name":"Frépillon","slug":"frepillon","department_code":"95","zip_code":"95740","gps_lat":49.04896902439026,"gps_lng":2.19942073170732},{"id":35496,"name":"La Frette-sur-Seine","slug":"la-frette-sur-seine","department_code":"95","zip_code":"95530","gps_lat":48.97279851063831,"gps_lng":2.17884404255319},{"id":35497,"name":"Frouville","slug":"frouville","department_code":"95","zip_code":"95690","gps_lat":49.15462839506172,"gps_lng":2.14963962962963},{"id":35498,"name":"Garges-lès-Gonesse","slug":"garges-les-gonesse","department_code":"95","zip_code":"95140","gps_lat":48.97020842105265,"gps_lng":2.41119578947368},{"id":35499,"name":"Genainville","slug":"genainville","department_code":"95","zip_code":"95420","gps_lat":49.12055698924732,"gps_lng":1.75348612903226},{"id":35500,"name":"Génicourt","slug":"genicourt","department_code":"95","zip_code":"95650","gps_lat":49.09656296296296,"gps_lng":2.06099740740741},{"id":35501,"name":"Gonesse","slug":"gonesse","department_code":"95","zip_code":"95500","gps_lat":48.98830310344827,"gps_lng":2.4585025},{"id":35502,"name":"Goussainville","slug":"goussainville","department_code":"95","zip_code":"95190","gps_lat":49.02880990654208,"gps_lng":2.47002607476636},{"id":35503,"name":"Gouzangrez","slug":"gouzangrez","department_code":"95","zip_code":"95450","gps_lat":49.11457818181818,"gps_lng":1.9100809090909099},{"id":35504,"name":"Grisy-les-Plâtres","slug":"grisy-les-platres","department_code":"95","zip_code":"95810","gps_lat":49.12983972972974,"gps_lng":2.05269945945946},{"id":35505,"name":"Groslay","slug":"groslay","department_code":"95","zip_code":"95410","gps_lat":48.98515620689655,"gps_lng":2.34862224137931},{"id":35506,"name":"Guiry-en-Vexin","slug":"guiry-en-vexin","department_code":"95","zip_code":"95450","gps_lat":49.11566636363636,"gps_lng":1.85267712121212},{"id":35507,"name":"Haravilliers","slug":"haravilliers","department_code":"95","zip_code":"95640","gps_lat":49.17370432098766,"gps_lng":2.03516098765432},{"id":35508,"name":"Haute-Isle","slug":"haute-isle","department_code":"95","zip_code":"95780","gps_lat":49.08442452830188,"gps_lng":1.66060075471698},{"id":35509,"name":"Le Heaulme","slug":"le-heaulme","department_code":"95","zip_code":"95640","gps_lat":49.16624604166668,"gps_lng":1.99692729166667},{"id":35510,"name":"Hédouville","slug":"hedouville","department_code":"95","zip_code":"95690","gps_lat":49.15889397959184,"gps_lng":2.17723408163265},{"id":35511,"name":"Herblay","slug":"herblay","department_code":"95","zip_code":"95220","gps_lat":48.99917055555554,"gps_lng":2.15650763888889},{"id":35512,"name":"Hérouville-en-Vexin","slug":"herouville-en-vexin","department_code":"95","zip_code":"95300","gps_lat":49.10231623188406,"gps_lng":2.12852463768116},{"id":35513,"name":"Hodent","slug":"hodent","department_code":"95","zip_code":"95420","gps_lat":49.1424080769231,"gps_lng":1.76605692307692},{"id":35514,"name":"L'Isle-Adam","slug":"l-isle-adam","department_code":"95","zip_code":"95290","gps_lat":49.11147647058826,"gps_lng":2.24040784313725},{"id":35515,"name":"Jagny-sous-Bois","slug":"jagny-sous-bois","department_code":"95","zip_code":"95850","gps_lat":49.08316981481481,"gps_lng":2.44469157407407},{"id":35516,"name":"Jouy-le-Moutier","slug":"jouy-le-moutier","department_code":"95","zip_code":"95280","gps_lat":49.01161250000001,"gps_lng":2.03159365384615},{"id":35517,"name":"Labbeville","slug":"labbeville","department_code":"95","zip_code":"95690","gps_lat":49.13983807692308,"gps_lng":2.13151990384615},{"id":35518,"name":"Lassy","slug":"lassy","department_code":"95","zip_code":"95270","gps_lat":49.09393666666666,"gps_lng":2.43724095238095},{"id":35519,"name":"Livilliers","slug":"livilliers","department_code":"95","zip_code":"95300","gps_lat":49.09981838235294,"gps_lng":2.09118264705882},{"id":35520,"name":"Longuesse","slug":"longuesse","department_code":"95","zip_code":"95450","gps_lat":49.06234465116279,"gps_lng":1.92992302325581},{"id":35521,"name":"Louvres","slug":"louvres","department_code":"95","zip_code":"95380","gps_lat":49.04056463917524,"gps_lng":2.49906164948454},{"id":35522,"name":"Luzarches","slug":"luzarches","department_code":"95","zip_code":"95270","gps_lat":49.11622376288661,"gps_lng":2.43130639175258},{"id":35523,"name":"Maffliers","slug":"maffliers","department_code":"95","zip_code":"95560","gps_lat":49.08416968,"gps_lng":2.31226384},{"id":35524,"name":"Magny-en-Vexin","slug":"magny-en-vexin","department_code":"95","zip_code":"95420","gps_lat":49.16207476190476,"gps_lng":1.8052956462585001},{"id":35525,"name":"Mareil-en-France","slug":"mareil-en-france","department_code":"95","zip_code":"95850","gps_lat":49.07280938775509,"gps_lng":2.42169571428571},{"id":35526,"name":"Margency","slug":"margency","department_code":"95","zip_code":"95580","gps_lat":49.00180222222222,"gps_lng":2.28816481481481},{"id":35527,"name":"Marines","slug":"marines","department_code":"95","zip_code":"95640","gps_lat":49.150887079646,"gps_lng":1.9839689380531},{"id":35528,"name":"Marly-la-Ville","slug":"marly-la-ville","department_code":"95","zip_code":"95670","gps_lat":49.08478293103448,"gps_lng":2.50235362068966},{"id":35529,"name":"Maudétour-en-Vexin","slug":"maudetour-en-vexin","department_code":"95","zip_code":"95420","gps_lat":49.11218607142856,"gps_lng":1.77580892857143},{"id":35530,"name":"Menouville","slug":"menouville","department_code":"95","zip_code":"95810","gps_lat":49.1531278846154,"gps_lng":2.10986442307692},{"id":35531,"name":"Menucourt","slug":"menucourt","department_code":"95","zip_code":"95180","gps_lat":49.0276360869565,"gps_lng":1.97606804347826},{"id":35532,"name":"Mériel","slug":"meriel","department_code":"95","zip_code":"95630","gps_lat":49.077333125,"gps_lng":2.2130216666666698},{"id":35533,"name":"Méry-sur-Oise","slug":"mery-sur-oise","department_code":"95","zip_code":"95540","gps_lat":49.05484739583332,"gps_lng":2.1721996875},{"id":35534,"name":"Le Mesnil-Aubry","slug":"le-mesnil-aubry","department_code":"95","zip_code":"95720","gps_lat":49.05158025641025,"gps_lng":2.39400282051282},{"id":35535,"name":"Moisselles","slug":"moisselles","department_code":"95","zip_code":"95570","gps_lat":49.04758863636363,"gps_lng":2.3353375},{"id":35536,"name":"Montgeroult","slug":"montgeroult","department_code":"95","zip_code":"95650","gps_lat":49.08752646341463,"gps_lng":2.00639097560976},{"id":35537,"name":"Montigny-lès-Cormeilles","slug":"montigny-les-cormeilles","department_code":"95","zip_code":"95370","gps_lat":48.99000339622641,"gps_lng":2.18957037735849},{"id":35538,"name":"Montlignon","slug":"montlignon","department_code":"95","zip_code":"95680","gps_lat":49.01382416666665,"gps_lng":2.2891465},{"id":35539,"name":"Montmagny","slug":"montmagny","department_code":"95","zip_code":"95360","gps_lat":48.96861208955223,"gps_lng":2.34353268656716},{"id":35540,"name":"Montmorency","slug":"montmorency","department_code":"95","zip_code":"95160","gps_lat":48.99314542857142,"gps_lng":2.32032247619048},{"id":35541,"name":"Montreuil-sur-Epte","slug":"montreuil-sur-epte","department_code":"95","zip_code":"95770","gps_lat":49.17146252525254,"gps_lng":1.6836196969697},{"id":35542,"name":"Montsoult","slug":"montsoult","department_code":"95","zip_code":"95560","gps_lat":49.07253041237116,"gps_lng":2.30052628865979},{"id":35543,"name":"Mours","slug":"mours","department_code":"95","zip_code":"95260","gps_lat":49.1295306849315,"gps_lng":2.26029},{"id":35544,"name":"Moussy","slug":"moussy","department_code":"95","zip_code":"95640","gps_lat":49.13484349206348,"gps_lng":1.90671873015873},{"id":35545,"name":"Nerville-la-Forêt","slug":"nerville-la-foret","department_code":"95","zip_code":"95590","gps_lat":49.090265,"gps_lng":2.28430653846154},{"id":35546,"name":"Nesles-la-Vallée","slug":"nesles-la-vallee","department_code":"95","zip_code":"95690","gps_lat":49.12898566433564,"gps_lng":2.17554230769231},{"id":35547,"name":"Neuilly-en-Vexin","slug":"neuilly-en-vexin","department_code":"95","zip_code":"95640","gps_lat":49.1733724137931,"gps_lng":1.9834994827586199},{"id":35548,"name":"Neuville-sur-Oise","slug":"neuville-sur-oise","department_code":"95","zip_code":"95000","gps_lat":49.01726717391306,"gps_lng":2.0648947826087},{"id":35549,"name":"Nointel","slug":"nointel","department_code":"95","zip_code":"95590","gps_lat":49.13067302325582,"gps_lng":2.28983},{"id":35550,"name":"Noisy-sur-Oise","slug":"noisy-sur-oise","department_code":"95","zip_code":"95270","gps_lat":49.13803739130435,"gps_lng":2.32599043478261},{"id":35551,"name":"Nucourt","slug":"nucourt","department_code":"95","zip_code":"95420","gps_lat":49.16082133333335,"gps_lng":1.8542561666666701},{"id":35552,"name":"Omerville","slug":"omerville","department_code":"95","zip_code":"95420","gps_lat":49.1413540776699,"gps_lng":1.7242990291262101},{"id":35553,"name":"Osny","slug":"osny","department_code":"95","zip_code":"95520","gps_lat":49.06657884615384,"gps_lng":2.06488871794872},{"id":35554,"name":"Parmain","slug":"parmain","department_code":"95","zip_code":"95620","gps_lat":49.11840873134331,"gps_lng":2.19997537313433},{"id":35555,"name":"Le Perchay","slug":"le-perchay","department_code":"95","zip_code":"95450","gps_lat":49.11845441176472,"gps_lng":1.9297558823529402},{"id":35556,"name":"Persan","slug":"persan","department_code":"95","zip_code":"95340","gps_lat":49.15007058823529,"gps_lng":2.26727607843137},{"id":35557,"name":"Pierrelaye","slug":"pierrelaye","department_code":"95","zip_code":"95220","gps_lat":48.9961448,"gps_lng":2.1475357},{"id":35559,"name":"Piscop","slug":"piscop","department_code":"95","zip_code":"95350","gps_lat":49.01721701492535,"gps_lng":2.34045895522388},{"id":35560,"name":"Le Plessis-Bouchard","slug":"le-plessis-bouchard","department_code":"95","zip_code":"95130","gps_lat":49.00450555555555,"gps_lng":2.23639222222222},{"id":35561,"name":"Le Plessis-Gassot","slug":"le-plessis-gassot","department_code":"95","zip_code":"95720","gps_lat":49.0342015,"gps_lng":2.414989},{"id":35562,"name":"Le Plessis-Luzarches","slug":"le-plessis-luzarches","department_code":"95","zip_code":"95270","gps_lat":49.0951101754386,"gps_lng":2.45638561403509},{"id":35563,"name":"Pontoise","slug":"pontoise","department_code":"95","zip_code":"95000","gps_lat":49.0331671,"gps_lng":2.0547222},{"id":35565,"name":"Presles","slug":"presles","department_code":"95","zip_code":"95590","gps_lat":49.10969400000001,"gps_lng":2.2878296000000002},{"id":35566,"name":"Puiseux-en-France","slug":"puiseux-en-france","department_code":"95","zip_code":"95380","gps_lat":49.07070196428571,"gps_lng":2.4892575},{"id":35567,"name":"Puiseux-Pontoise","slug":"puiseux-pontoise","department_code":"95","zip_code":"95650","gps_lat":49.06761573770492,"gps_lng":2.02058032786885},{"id":35568,"name":"La Roche-Guyon","slug":"la-roche-guyon","department_code":"95","zip_code":"95780","gps_lat":49.09188600000002,"gps_lng":1.63614873684211},{"id":35569,"name":"Roissy-en-France","slug":"roissy-en-france","department_code":"95","zip_code":"95700","gps_lat":49.0040585148515,"gps_lng":2.5184295049505},{"id":35570,"name":"Ronquerolles","slug":"ronquerolles","department_code":"95","zip_code":"95340","gps_lat":49.1694086440678,"gps_lng":2.20950898305085},{"id":35571,"name":"Sagy","slug":"sagy","department_code":"95","zip_code":"95450","gps_lat":49.05306962962963,"gps_lng":1.9643462962962999},{"id":35572,"name":"Saint-Brice-sous-Forêt","slug":"saint-brice-sous-foret","department_code":"95","zip_code":"95350","gps_lat":49.00286964705882,"gps_lng":2.34882564705882},{"id":35573,"name":"Saint-Clair-sur-Epte","slug":"saint-clair-sur-epte","department_code":"95","zip_code":"95770","gps_lat":49.21169631249999,"gps_lng":1.6962161875000001},{"id":35574,"name":"Saint-Cyr-en-Arthies","slug":"saint-cyr-en-arthies","department_code":"95","zip_code":"95510","gps_lat":49.06104847457627,"gps_lng":1.7423993220339},{"id":35575,"name":"Saint-Gervais","slug":"saint-gervais","department_code":"95","zip_code":"95420","gps_lat":49.16526240384615,"gps_lng":1.75908625},{"id":35576,"name":"Saint-Gratien","slug":"saint-gratien","department_code":"95","zip_code":"95210","gps_lat":48.96939281249999,"gps_lng":2.28339703125},{"id":35577,"name":"Saint-Leu-la-Forêt","slug":"saint-leu-la-foret","department_code":"95","zip_code":"95320","gps_lat":49.02003440000001,"gps_lng":2.2460952},{"id":35578,"name":"Saint-Martin-du-Tertre","slug":"saint-martin-du-tertre","department_code":"95","zip_code":"95270","gps_lat":49.09757347457624,"gps_lng":2.3356206779661},{"id":35579,"name":"Saint-Ouen-l'Aumône","slug":"saint-ouen-l-aumone","department_code":"95","zip_code":"95310","gps_lat":49.04754642857144,"gps_lng":2.13228757142857},{"id":35580,"name":"Saint-Prix","slug":"saint-prix","department_code":"95","zip_code":"95390","gps_lat":49.01685919354839,"gps_lng":2.27306516129032},{"id":35581,"name":"Saint-Witz","slug":"saint-witz","department_code":"95","zip_code":"95470","gps_lat":49.08577914285715,"gps_lng":2.55323380952381},{"id":35582,"name":"Sannois","slug":"sannois","department_code":"95","zip_code":"95110","gps_lat":48.97179847058822,"gps_lng":2.25404317647059},{"id":35583,"name":"Santeuil","slug":"santeuil","department_code":"95","zip_code":"95640","gps_lat":49.12846706521741,"gps_lng":1.95537695652174},{"id":35584,"name":"Sarcelles","slug":"sarcelles","department_code":"95","zip_code":"95200","gps_lat":48.99668307692307,"gps_lng":2.37979858974359},{"id":35585,"name":"Seraincourt","slug":"seraincourt","department_code":"95","zip_code":"95450","gps_lat":49.04083783505155,"gps_lng":1.87647092783505},{"id":35586,"name":"Seugy","slug":"seugy","department_code":"95","zip_code":"95270","gps_lat":49.12281095238095,"gps_lng":2.39360023809524},{"id":35587,"name":"Soisy-sous-Montmorency","slug":"soisy-sous-montmorency","department_code":"95","zip_code":"95230","gps_lat":48.98910777777778,"gps_lng":2.30312541666667},{"id":35588,"name":"Survilliers","slug":"survilliers","department_code":"95","zip_code":"95470","gps_lat":49.10571285714285,"gps_lng":2.54832971428571},{"id":35589,"name":"Taverny","slug":"taverny","department_code":"95","zip_code":"95150","gps_lat":49.03016242857144,"gps_lng":2.225223},{"id":35590,"name":"Théméricourt","slug":"themericourt","department_code":"95","zip_code":"95450","gps_lat":49.08518132075472,"gps_lng":1.90090660377359},{"id":35591,"name":"Theuville","slug":"theuville","department_code":"95","zip_code":"95810","gps_lat":49.15490253521126,"gps_lng":2.06828633802817},{"id":35592,"name":"Le Thillay","slug":"le-thillay","department_code":"95","zip_code":"95500","gps_lat":49.00429226415095,"gps_lng":2.46955830188679},{"id":35593,"name":"Us","slug":"us","department_code":"95","zip_code":"95450","gps_lat":49.10513978494624,"gps_lng":1.95814655913978},{"id":35594,"name":"Vallangoujard","slug":"vallangoujard","department_code":"95","zip_code":"95810","gps_lat":49.13628919191919,"gps_lng":2.10375383838384},{"id":35595,"name":"Valmondois","slug":"valmondois","department_code":"95","zip_code":"95760","gps_lat":49.09819428571428,"gps_lng":2.18757846153846},{"id":35596,"name":"Vaudherland","slug":"vaudherland","department_code":"95","zip_code":"95500","gps_lat":49.00095235294118,"gps_lng":2.48723647058824},{"id":35597,"name":"Vauréal","slug":"vaureal","department_code":"95","zip_code":"95490","gps_lat":49.03155282051283,"gps_lng":2.02903538461538},{"id":35598,"name":"Vémars","slug":"vemars","department_code":"95","zip_code":"95470","gps_lat":49.06109588709682,"gps_lng":2.5658525},{"id":35599,"name":"Vétheuil","slug":"vetheuil","department_code":"95","zip_code":"95510","gps_lat":49.06252573033707,"gps_lng":1.7074633707865199},{"id":35600,"name":"Viarmes","slug":"viarmes","department_code":"95","zip_code":"95270","gps_lat":49.12372597938147,"gps_lng":2.38261082474227},{"id":35601,"name":"Vienne-en-Arthies","slug":"vienne-en-arthies","department_code":"95","zip_code":"95510","gps_lat":49.06675374999999,"gps_lng":1.72136475},{"id":35602,"name":"Vigny","slug":"vigny","department_code":"95","zip_code":"95450","gps_lat":49.07949877551022,"gps_lng":1.9330787755102001},{"id":35603,"name":"Villaines-sous-Bois","slug":"villaines-sous-bois","department_code":"95","zip_code":"95570","gps_lat":49.07550363636363,"gps_lng":2.3530122727272698},{"id":35604,"name":"Villeron","slug":"villeron","department_code":"95","zip_code":"95380","gps_lat":49.05584833333331,"gps_lng":2.5377248809523802},{"id":35605,"name":"Villers-en-Arthies","slug":"villers-en-arthies","department_code":"95","zip_code":"95510","gps_lat":49.08014703125001,"gps_lng":1.730175},{"id":35606,"name":"Villiers-Adam","slug":"villiers-adam","department_code":"95","zip_code":"95840","gps_lat":49.0658165625,"gps_lng":2.23847604166667},{"id":35607,"name":"Villiers-le-Bel","slug":"villiers-le-bel","department_code":"95","zip_code":"95400","gps_lat":49.00812831168833,"gps_lng":2.40212246753247},{"id":35608,"name":"Villiers-le-Sec","slug":"villiers-le-sec","department_code":"95","zip_code":"95720","gps_lat":49.07325222222224,"gps_lng":2.38618388888889},{"id":35609,"name":"Wy-dit-Joli-Village","slug":"wy-dit-joli-village","department_code":"95","zip_code":"95420","gps_lat":49.09766507246376,"gps_lng":1.8262602898550702}]},"city":{"id":35457,"name":"Buhy","slug":"buhy","department_code":"95","zip_code":"95770","gps_lat":49.19013239130433,"gps_lng":1.70626586956522},"SITE_NAME":"DSTR 3D"},"__N_SSG":true}