{"pageProps":{"service":{"id":2,"name":"Désinsectisation","landing":{"blocs":[{"tag":"h1","content":"Désinsectisation professionnelle en Île-de-France"},{"tag":"p","content":"Vous habitez en Île-de-France et vous avez un problème d'infestation de nuisibles ? Nous sommes là pour vous aider !<br><br>Notre entreprise de désinsectisation est spécialisée dans la lutte contre les nuisibles tels que les cafards, les moustiques, les fourmis, les punaises de lit et bien d'autres encore. Nous proposons des services de qualité professionnelle pour éliminer ces nuisibles de votre maison ou de votre entreprise.<br><br>Nous sommes une entreprise spécialisée en désinsectisation et nous utilisons des produits et des méthodes de traitement qui sont sûrs et efficaces. Nous sommes également formés pour gérer tous les types d'infestations de nuisibles, quelle que soit leur taille ou leur gravité.<br><br>N'hésitez pas à nous contacter pour plus d'informations ou pour demander un devis gratuit. Nous sommes impatients de vous aider à éliminer les nuisibles de votre vie !"},{"tag":"h2","content":"Pourquoi choisir notre entreprise de désinsectisation en Île-de-France ?"},{"tag":"ul","content":["Nous sommes une entreprise professionnelle et expérimentée dans la lutte contre les nuisibles en Île-de-France.","Nous utilisons des produits et des méthodes de traitement sûrs et efficaces.","Nous sommes formés pour gérer tous les types d'infestations de nuisibles, quelle que soit leur taille ou leur gravité.","Nous offrons un service rapide et efficace pour éliminer les nuisibles de votre maison ou de votre entreprise.","Nous proposons des tarifs compétitifs et transparents."]},{"tag":"h2","content":"Comment nous contacter ?"},{"tag":"p","content":"Vous pouvez nous contacter par téléphone au 01 02 03 04 05 ou en remplissant notre formulaire de contact en ligne. Nous nous ferons un plaisir de répondre à toutes vos questions et de vous aider à résoudre votre problème d'infestation de nuisibles en Île-de-France.<br><br>N'hésitez pas à nous contacter dès maintenant pour en savoir plus sur nos services de désinsectisation et demander un devis gratuit. Nous sommes impatients de vous aider à éliminer les nuisibles de votre vie !"}]},"description":"On trouve les insectes, on les retire et vous retrouvez votre vie normale","paragraph":["Vous êtes victime d'une infestation de nuisibles, tels que des moustiques, des punaises de lit, des cafards, etc.? Ne laissez pas ces insectes envahir votre maison ou votre entreprise et mettre votre santé en danger. Faites appel à notre service de désinsectisation professionnelle pour éliminer ces nuisibles de manière définitive. Notre équipe d'experts utilise des méthodes efficaces et respectueuses de l'environnement pour garantir un résultat durable. Contactez-nous dès maintenant pour obtenir un devis gratuit et débarrassez-vous enfin de ces nuisibles.","Vous avez repéré des signes de présence de nuisibles dans votre maison ou votre entreprise? Ne prenez pas de risques, contactez-nous dès maintenant pour une intervention de désinsectisation professionnelle. Nous utilisons des méthodes efficaces et respectueuses de l'environnement pour éliminer ces nuisibles de manière définitive et protéger votre propriété contre les dommages qu'ils peuvent causer. Nous vous proposons un devis gratuit afin que vous puissiez prendre une décision éclairée. Faites appel à notre service de désinsectisation professionnelle pour protéger votre santé et celle de votre famille.","Les nuisibles peuvent causer de graves problèmes de santé et de nombreux dommages matériels à votre propriété. Ne prenez pas de risques, contactez-nous dès maintenant pour une intervention de désinsectisation professionnelle. Notre équipe d'experts utilise des méthodes efficaces et respectueuses de l'environnement pour éliminer ces nuisibles de manière définitive. Nous mettons à votre disposition tous les moyens nécessaires pour garantir un résultat durable. Contactez-nous dès maintenant pour obtenir un devis gratuit et débarrassez-vous enfin de ces nuisibles.","La présence de nuisibles peut causer de nombreux problèmes dans votre maison ou votre entreprise. N'attendez pas pour agir, contactez-nous dès maintenant pour une intervention de désinsectisation professionnelle. Nous utilisons des méthodes efficaces et respectueuses de l'environnement pour éliminer ces nuisibles de manière définitive. N'hésitez pas à nous contacter pour obtenir un devis gratuit et débarrassez-vous enfin de ces nuisibles."],"slug":"desinsectisation"},"department":{"name":"Seine-Saint-Denis","slug":"seine-saint-denis","region_code":"11","code":"93","cities":[{"id":35333,"name":"Aubervilliers","slug":"aubervilliers","department_code":"93","zip_code":"93300","gps_lat":48.91765413793105,"gps_lng":2.38763913793103},{"id":35334,"name":"Aulnay-sous-Bois","slug":"aulnay-sous-bois","department_code":"93","zip_code":"93600","gps_lat":48.94154274809164,"gps_lng":2.49535091603053},{"id":35335,"name":"Bagnolet","slug":"bagnolet","department_code":"93","zip_code":"93170","gps_lat":48.86894805555554,"gps_lng":2.4265047222222202},{"id":35336,"name":"Le Blanc-Mesnil","slug":"le-blanc-mesnil","department_code":"93","zip_code":"93150","gps_lat":48.93694636363635,"gps_lng":2.4621964545454498},{"id":35337,"name":"Bobigny","slug":"bobigny","department_code":"93","zip_code":"93000","gps_lat":48.91076557377051,"gps_lng":2.44715344262295},{"id":35338,"name":"Bondy","slug":"bondy","department_code":"93","zip_code":"93140","gps_lat":48.90384434210527,"gps_lng":2.48625842105263},{"id":35339,"name":"Le Bourget","slug":"le-bourget","department_code":"93","zip_code":"93350","gps_lat":48.93678173913043,"gps_lng":2.42620195652174},{"id":35340,"name":"Clichy-sous-Bois","slug":"clichy-sous-bois","department_code":"93","zip_code":"93390","gps_lat":48.9083122,"gps_lng":2.5428094},{"id":35341,"name":"Coubron","slug":"coubron","department_code":"93","zip_code":"93470","gps_lat":48.91953213114753,"gps_lng":2.57905836065574},{"id":35342,"name":"La Courneuve","slug":"la-courneuve","department_code":"93","zip_code":"93120","gps_lat":48.93235752688172,"gps_lng":2.40070247311828},{"id":35343,"name":"Drancy","slug":"drancy","department_code":"93","zip_code":"93700","gps_lat":48.92382297619049,"gps_lng":2.45382821428572},{"id":35344,"name":"Dugny","slug":"dugny","department_code":"93","zip_code":"93440","gps_lat":48.95305608108109,"gps_lng":2.42423121621622},{"id":35345,"name":"Épinay-sur-Seine","slug":"epinay-sur-seine","department_code":"93","zip_code":"93800","gps_lat":48.95281024390244,"gps_lng":2.32321975609756},{"id":35346,"name":"Gagny","slug":"gagny","department_code":"93","zip_code":"93220","gps_lat":48.88299242718445,"gps_lng":2.5467667961165},{"id":35347,"name":"Gournay-sur-Marne","slug":"gournay-sur-marne","department_code":"93","zip_code":"93460","gps_lat":48.86190241379311,"gps_lng":2.57418551724138},{"id":35348,"name":"L'Île-Saint-Denis","slug":"l-ile-saint-denis","department_code":"93","zip_code":"93450","gps_lat":48.93743657142858,"gps_lng":2.32493857142857},{"id":35349,"name":"Les Lilas","slug":"les-lilas","department_code":"93","zip_code":"93260","gps_lat":48.88399434782609,"gps_lng":2.42133195652174},{"id":35350,"name":"Livry-Gargan","slug":"livry-gargan","department_code":"93","zip_code":"93190","gps_lat":48.9203337837838,"gps_lng":2.5349509009009},{"id":35351,"name":"Montfermeil","slug":"montfermeil","department_code":"93","zip_code":"93370","gps_lat":48.8952991304348,"gps_lng":2.56728163043478},{"id":35352,"name":"Montreuil","slug":"montreuil","department_code":"93","zip_code":"93100","gps_lat":48.86430191489363,"gps_lng":2.45081031914894},{"id":35353,"name":"Neuilly-Plaisance","slug":"neuilly-plaisance","department_code":"93","zip_code":"93360","gps_lat":48.86486195121952,"gps_lng":2.5127263414634102},{"id":35354,"name":"Neuilly-sur-Marne","slug":"neuilly-sur-marne","department_code":"93","zip_code":"93330","gps_lat":48.86526206896551,"gps_lng":2.5367218390804602},{"id":35355,"name":"Noisy-le-Grand","slug":"noisy-le-grand","department_code":"93","zip_code":"93160","gps_lat":48.83600000000001,"gps_lng":2.56563018348624},{"id":35356,"name":"Noisy-le-Sec","slug":"noisy-le-sec","department_code":"93","zip_code":"93130","gps_lat":48.88746432098765,"gps_lng":2.45495283950617},{"id":35357,"name":"Pantin","slug":"pantin","department_code":"93","zip_code":"93500","gps_lat":48.89756878787878,"gps_lng":2.41268166666667},{"id":35358,"name":"Les Pavillons-sous-Bois","slug":"les-pavillons-sous-bois","department_code":"93","zip_code":"93320","gps_lat":48.90545784313725,"gps_lng":2.50152980392157},{"id":35359,"name":"Pierrefitte-sur-Seine","slug":"pierrefitte-sur-seine","department_code":"93","zip_code":"93380","gps_lat":48.95910326923078,"gps_lng":2.35926788461538},{"id":35360,"name":"Le Pré-Saint-Gervais","slug":"le-pre-saint-gervais","department_code":"93","zip_code":"93310","gps_lat":48.88463720000001,"gps_lng":2.407436},{"id":35361,"name":"Le Raincy","slug":"le-raincy","department_code":"93","zip_code":"93340","gps_lat":48.89669500000001,"gps_lng":2.51919722222222},{"id":35362,"name":"Romainville","slug":"romainville","department_code":"93","zip_code":"93230","gps_lat":48.88417932584269,"gps_lng":2.44036191011236},{"id":35363,"name":"Rosny-sous-Bois","slug":"rosny-sous-bois","department_code":"93","zip_code":"93110","gps_lat":48.87378906666667,"gps_lng":2.48674706666667},{"id":35364,"name":"Saint-Denis","slug":"saint-denis","department_code":"93","zip_code":"93200","gps_lat":48.9315523,"gps_lng":2.3563278},{"id":35366,"name":"Saint-Ouen","slug":"saint-ouen","department_code":"93","zip_code":"93400","gps_lat":48.91191033333335,"gps_lng":2.33308733333333},{"id":35367,"name":"Sevran","slug":"sevran","department_code":"93","zip_code":"93270","gps_lat":48.93684736842103,"gps_lng":2.52817421052632},{"id":35368,"name":"Stains","slug":"stains","department_code":"93","zip_code":"93240","gps_lat":48.95270319999999,"gps_lng":2.39110933333333},{"id":35369,"name":"Tremblay-en-France","slug":"tremblay-en-france","department_code":"93","zip_code":"93290","gps_lat":48.97638113095239,"gps_lng":2.55445732142857},{"id":35370,"name":"Vaujours","slug":"vaujours","department_code":"93","zip_code":"93410","gps_lat":48.93275253164556,"gps_lng":2.58114911392405},{"id":35371,"name":"Villemomble","slug":"villemomble","department_code":"93","zip_code":"93250","gps_lat":48.88461440000001,"gps_lng":2.50902866666667},{"id":35372,"name":"Villepinte","slug":"villepinte","department_code":"93","zip_code":"93420","gps_lat":48.95807417582416,"gps_lng":2.5363513186813202},{"id":35373,"name":"Villetaneuse","slug":"villetaneuse","department_code":"93","zip_code":"93430","gps_lat":48.95996583333334,"gps_lng":2.34719555555556}]},"city":{"id":35347,"name":"Gournay-sur-Marne","slug":"gournay-sur-marne","department_code":"93","zip_code":"93460","gps_lat":48.86190241379311,"gps_lng":2.57418551724138},"SITE_NAME":"DSTR 3D"},"__N_SSG":true}