{"pageProps":{"service":{"id":5,"name":"DÃ©taupisation","description":"On trouve les insectes, on les retire et vous retrouvez votre vie normale","slug":"detaupisation"},"department":{"name":"Paris","slug":"paris","region_code":"11","code":"75","cities":[{"id":29900,"name":"1er Arrondissement","slug":"arrondissement-1","department_code":"75","zip_code":"75001","gps_lat":48.8640493,"gps_lng":2.3310526},{"id":29901,"name":"2eme Arrondissement","slug":"arrondissement-2","department_code":"75","zip_code":"75002","gps_lat":48.8675641,"gps_lng":2.34399},{"id":29902,"name":"3eme Arrondissement","slug":"arrondissement-3","department_code":"75","zip_code":"75003","gps_lat":48.8634799,"gps_lng":2.3591145},{"id":29903,"name":"4eme Arrondissement","slug":"arrondissement-4","department_code":"75","zip_code":"75004","gps_lat":48.8534275,"gps_lng":2.3582788},{"id":29904,"name":"5eme Arrondissement","slug":"arrondissement-5","department_code":"75","zip_code":"75005","gps_lat":48.8434912,"gps_lng":2.3518339},{"id":29905,"name":"6eme Arrondissement","slug":"arrondissement-6","department_code":"75","zip_code":"75006","gps_lat":48.8488576,"gps_lng":2.3354223},{"id":29906,"name":"7eme Arrondissement","slug":"arrondissement-7","department_code":"75","zip_code":"75007","gps_lat":48.85433450000001,"gps_lng":2.3134029},{"id":29907,"name":"8eme Arrondissement","slug":"arrondissement-8","department_code":"75","zip_code":"75008","gps_lat":48.8718722,"gps_lng":2.3176432},{"id":29908,"name":"9eme Arrondissement","slug":"arrondissement-9","department_code":"75","zip_code":"75009","gps_lat":48.8790183,"gps_lng":2.3379063},{"id":29909,"name":"10eme Arrondissement","slug":"arrondissement-10","department_code":"75","zip_code":"75010","gps_lat":48.8785618,"gps_lng":2.3603689},{"id":29910,"name":"11eme Arrondissement","slug":"arrondissement-11","department_code":"75","zip_code":"75011","gps_lat":48.85799300000001,"gps_lng":2.381153},{"id":29911,"name":"12eme Arrondissement","slug":"arrondissement-12","department_code":"75","zip_code":"75012","gps_lat":48.8293647,"gps_lng":2.4265406},{"id":29912,"name":"13eme Arrondissement","slug":"arrondissement-13","department_code":"75","zip_code":"75013","gps_lat":48.830759,"gps_lng":2.359204},{"id":29913,"name":"14eme Arrondissement","slug":"arrondissement-14","department_code":"75","zip_code":"75014","gps_lat":48.8314408,"gps_lng":2.3255684},{"id":29914,"name":"15eme Arrondissement","slug":"arrondissement-15","department_code":"75","zip_code":"75015","gps_lat":48.8421616,"gps_lng":2.2927665},{"id":29915,"name":"16eme Arrondissement","slug":"arrondissement-16","department_code":"75","zip_code":"75016","gps_lat":48.8530933,"gps_lng":2.2487626},{"id":29916,"name":"17eme Arrondissement","slug":"arrondissement-17","department_code":"75","zip_code":"75017","gps_lat":48.891986,"gps_lng":2.319287},{"id":29917,"name":"18eme Arrondissement","slug":"arrondissement-18","department_code":"75","zip_code":"75018","gps_lat":48.891305,"gps_lng":2.3529866999999998},{"id":29918,"name":"19eme Arrondissement","slug":"arrondissement-19","department_code":"75","zip_code":"75019","gps_lat":48.89061359999999,"gps_lng":2.3867083},{"id":29919,"name":"20eme Arrondissement","slug":"arrondissement-20","department_code":"75","zip_code":"75020","gps_lat":48.8599825,"gps_lng":2.4066412}]},"city":{"id":29908,"name":"9eme Arrondissement","slug":"arrondissement-9","department_code":"75","zip_code":"75009","gps_lat":48.8790183,"gps_lng":2.3379063},"SITE_NAME":"DSTR 3D"},"__N_SSG":true}