{"pageProps":{"service":{"id":6,"name":"Dépigeonage","description":"On trouve les insectes, on les retire et vous retrouvez votre vie normale","slug":"depigeonage"},"departments":[{"name":"Paris","slug":"paris","region_code":"11","code":"75","cities":[{"id":29900,"name":"1er Arrondissement","slug":"arrondissement-1","department_code":"75","zip_code":"75001","gps_lat":48.8640493,"gps_lng":2.3310526}]},{"name":"Seine-et-Marne","slug":"seine-et-marne","region_code":"11","code":"77","cities":[{"id":30639,"name":"Achères-la-Forêt","slug":"acheres-la-foret","department_code":"77","zip_code":"77760","gps_lat":48.35097184210527,"gps_lng":2.56216421052632}]},{"name":"Yvelines","slug":"yvelines","region_code":"11","code":"78","cities":[{"id":31149,"name":"Ablis","slug":"ablis","department_code":"78","zip_code":"78660","gps_lat":48.53102966386555,"gps_lng":1.8459192436974798}]},{"name":"Essonne","slug":"essonne","region_code":"11","code":"91","cities":[{"id":35099,"name":"Abbéville-la-Rivière","slug":"abbeville-la-riviere","department_code":"91","zip_code":"91150","gps_lat":48.34096299999999,"gps_lng":2.185324}]},{"name":"Hauts-de-Seine","slug":"hauts-de-seine","region_code":"11","code":"92","cities":[{"id":35296,"name":"Antony","slug":"antony","department_code":"92","zip_code":"92160","gps_lat":48.74945257425741,"gps_lng":2.29933831683168}]},{"name":"Seine-Saint-Denis","slug":"seine-saint-denis","region_code":"11","code":"93","cities":[{"id":35333,"name":"Aubervilliers","slug":"aubervilliers","department_code":"93","zip_code":"93300","gps_lat":48.91765413793105,"gps_lng":2.38763913793103}]},{"name":"Val-de-Marne","slug":"val-de-marne","region_code":"11","code":"94","cities":[{"id":35374,"name":"Ablon-sur-Seine","slug":"ablon-sur-seine","department_code":"94","zip_code":"94480","gps_lat":48.72588714285714,"gps_lng":2.42129333333333}]},{"name":"Val-d'Oise","slug":"val-doise","region_code":"11","code":"95","cities":[{"id":35422,"name":"Ableiges","slug":"ableiges","department_code":"95","zip_code":"95450","gps_lat":49.08820796116506,"gps_lng":1.97821854368932}]}]},"__N_SSG":true}